$GPRMC,120000.00,A,5913.900,N,01046.200,E,0.0,0.0,110924,,,A*54
$GPGGA,120000.00,5913.900,N,01046.200,E,1,06,1.0,40.0,M,39.0,M,,*50
$GPGSV,2,1,06,01,40,037,46,03,40,111,44,08,40,296,42,11,40,047,45*78
$GPGSV,2,2,06,17,40,269,41,22,40,094,43*7B
$GPRMC,120001.00,A,5913.900,N,01046.200,E,0.0,0.0,110924,,,A*55
$GPGGA,120001.00,5913.900,N,01046.200,E,1,06,1.0,40.0,M,39.0,M,,*51
$GPGSV,2,1,06,01,40,037,46,03,40,111,44,08,40,296,42,11,40,047,45*78
$GPGSV,2,2,06,17,40,269,41,22,40,094,43*7B
$GPRMC,120002.00,A,5913.900,N,01046.200,E,0.0,0.0,110924,,,A*56
$GPGGA,120002.00,5913.900,N,01046.200,E,1,06,1.0,40.0,M,39.0,M,,*52
$GPGSV,2,1,06,01,40,037,46,03,40,111,44,08,40,296,42,11,40,047,45*78
$GPGSV,2,2,06,17,40,269,41,22,40,094,43*7B
$GPRMC,120003.00,A,5913.900,N,01046.200,E,0.0,0.0,110924,,,A*57
$GPGGA,120003.00,5913.900,N,01046.200,E,1,06,1.0,40.0,M,39.0,M,,*53
$GPGSV,2,1,06,01,40,037,46,03,40,111,44,08,40,296,42,11,40,047,45*78
$GPGSV,2,2,06,17,40,269,41,22,40,094,43*7B
$GPRMC,120004.00,A,5913.900,N,01046.200,E,0.0,0.0,110924,,,A*50
$GPGGA,120004.00,5913.900,N,01046.200,E,1,06,1.0,40.0,M,39.0,M,,*54
$GPGSV,2,1,06,01,40,037,46,03,40,111,44,08,40,296,42,11,40,047,45*78
$GPGSV,2,2,06,17,40,269,41,22,40,094,43*7B
$GPRMC,120005.00,A,5913.900,N,01046.200,E,0.0,0.0,110924,,,A*51
$GPGGA,120005.00,5913.900,N,01046.200,E,1,06,1.0,40.0,M,39.0,M,,*55
$GPGSV,2,1,06,01,40,037,46,03,40,111,44,08,40,296,42,11,40,047,45*78
$GPGSV,2,2,06,17,40,269,41,22,40,094,43*7B
$GPRMC,120006.00,A,5913.900,N,01046.200,E,0.0,0.0,110924,,,A*52
$GPGGA,120006.00,5913.900,N,01046.200,E,1,06,1.0,40.0,M,39.0,M,,*56
$GPGSV,2,1,06,01,40,037,46,03,40,111,44,08,40,296,42,11,40,047,45*78
$GPGSV,2,2,06,17,40,269,41,22,40,094,43*7B
$GPRMC,120007.00,A,5913.900,N,01046.200,E,0.0,0.0,110924,,,A*53
$GPGGA,120007.00,5913.900,N,01046.200,E,1,06,1.0,40.0,M,39.0,M,,*57
$GPGSV,2,1,06,01,40,037,46,03,40,111,44,08,40,296,42,11,40,047,45*78
$GPGSV,2,2,06,17,40,269,41,22,40,094,43*7B
$GPRMC,120008.00,A,5913.900,N,01046.200,E,0.0,0.0,110924,,,A*5C
$GPGGA,120008.00,5913.900,N,01046.200,E,1,06,1.0,40.0,M,39.0,M,,*58
$GPGSV,2,1,06,01,40,037,46,03,40,111,44,08,40,296,42,11,40,047,45*78
$GPGSV,2,2,06,17,40,269,41,22,40,094,43*7B
$GPRMC,120009.00,A,5913.900,N,01046.200,E,0.0,0.0,110924,,,A*5D
$GPGGA,120009.00,5913.900,N,01046.200,E,1,06,1.0,40.0,M,39.0,M,,*59
$GPGSV,2,1,06,01,40,037,46,03,40,111,44,08,40,296,42,11,40,047,45*78
$GPGSV,2,2,06,17,40,269,41,22,40,094,43*7B
$GPRMC,120010.00,A,5913.900,N,01046.200,E,0.0,0.0,110924,,,A*55
$GPGGA,120010.00,5913.900,N,01046.200,E,1,06,1.0,40.0,M,39.0,M,,*51
$GPGSV,2,1,06,01,40,037,46,03,40,111,44,08,40,296,42,11,40,047,45*78
$GPGSV,2,2,06,17,40,269,41,22,40,094,43*7B
$GPRMC,120011.00,A,5913.900,N,01046.200,E,0.0,0.0,110924,,,A*54
$GPGGA,120011.00,5913.900,N,01046.200,E,1,06,1.0,40.0,M,39.0,M,,*50
$GPGSV,2,1,06,01,40,037,46,03,40,111,44,08,40,296,42,11,40,047,45*78
$GPGSV,2,2,06,17,40,269,41,22,40,094,43*7B
$GPRMC,120012.00,A,5913.900,N,01046.200,E,0.0,0.0,110924,,,A*57
$GPGGA,120012.00,5913.900,N,01046.200,E,1,06,1.0,40.0,M,39.0,M,,*53
$GPGSV,2,1,06,01,40,037,46,03,40,111,44,08,40,296,42,11,40,047,45*78
$GPGSV,2,2,06,17,40,269,41,22,40,094,43*7B
$GPRMC,120013.00,A,5913.900,N,01046.200,E,0.0,0.0,110924,,,A*56
$GPGGA,120013.00,5913.900,N,01046.200,E,1,06,1.0,40.0,M,39.0,M,,*52
$GPGSV,2,1,06,01,40,037,46,03,40,111,44,08,40,296,42,11,40,047,45*78
$GPGSV,2,2,06,17,40,269,41,22,40,094,43*7B
$GPRMC,120014.00,A,5913.900,N,01046.200,E,0.0,0.0,110924,,,A*51
$GPGGA,120014.00,5913.900,N,01046.200,E,1,06,1.0,40.0,M,39.0,M,,*55
$GPGSV,2,1,06,01,40,037,46,03,40,111,44,08,40,296,42,11,40,047,45*78
$GPGSV,2,2,06,17,40,269,41,22,40,094,43*7B
$GPRMC,120015.00,A,5913.900,N,01046.200,E,0.0,0.0,110924,,,A*50
$GPGGA,120015.00,5913.900,N,01046.200,E,1,06,1.0,40.0,M,39.0,M,,*54
$GPGSV,2,1,06,01,40,037,46,03,40,111,44,08,40,296,42,11,40,047,45*78
$GPGSV,2,2,06,17,40,269,41,22,40,094,43*7B
$GPRMC,120016.00,A,5913.900,N,01046.200,E,0.0,0.0,110924,,,A*53
$GPGGA,120016.00,5913.900,N,01046.200,E,1,06,1.0,40.0,M,39.0,M,,*57
$GPGSV,2,1,06,01,40,037,46,03,40,111,44,08,40,296,42,11,40,047,45*78
$GPGSV,2,2,06,17,40,269,41,22,40,094,43*7B
$GPRMC,120017.00,A,5913.900,N,01046.200,E,0.0,0.0,110924,,,A*52
$GPGGA,120017.00,5913.900,N,01046.200,E,1,06,1.0,40.0,M,39.0,M,,*56
$GPGSV,2,1,06,01,40,037,46,03,40,111,44,08,40,296,42,11,40,047,45*78
$GPGSV,2,2,06,17,40,269,41,22,40,094,43*7B
$GPRMC,120018.00,A,5913.900,N,01046.200,E,0.0,0.0,110924,,,A*5D
$GPGGA,120018.00,5913.900,N,01046.200,E,1,06,1.0,40.0,M,39.0,M,,*59
$GPGSV,2,1,06,01,40,037,46,03,40,111,44,08,40,296,42,11,40,047,45*78
$GPGSV,2,2,06,17,40,269,41,22,40,094,43*7B
$GPRMC,120019.00,A,5913.900,N,01046.200,E,0.0,0.0,110924,,,A*5C
$GPGGA,120019.00,5913.900,N,01046.200,E,1,06,1.0,40.0,M,39.0,M,,*58
$GPGSV,2,1,06,01,40,037,46,03,40,111,44,08,40,296,42,11,40,047,45*78
$GPGSV,2,2,06,17,40,269,41,22,40,094,43*7B
$GPRMC,120020.00,A,5913.900,N,01046.200,E,0.0,0.0,110924,,,A*56
$GPGGA,120020.00,5913.900,N,01046.200,E,1,06,1.0,40.0,M,39.0,M,,*52
$GPGSV,2,1,06,01,40,037,46,03,40,111,44,08,40,296,42,11,40,047,45*78
$GPGSV,2,2,06,17,40,269,41,22,40,094,43*7B
$GPRMC,120021.00,A,5913.900,N,01046.200,E,0.0,0.0,110924,,,A*57
$GPGGA,120021.00,5913.900,N,01046.200,E,1,06,1.0,40.0,M,39.0,M,,*53
$GPGSV,2,1,06,01,40,037,46,03,40,111,44,08,40,296,42,11,40,047,45*78
$GPGSV,2,2,06,17,40,269,41,22,40,094,43*7B
$GPRMC,120022.00,A,5913.900,N,01046.200,E,0.0,0.0,110924,,,A*54
$GPGGA,120022.00,5913.900,N,01046.200,E,1,06,1.0,40.0,M,39.0,M,,*50
$GPGSV,2,1,06,01,40,037,46,03,40,111,44,08,40,296,42,11,40,047,45*78
$GPGSV,2,2,06,17,40,269,41,22,40,094,43*7B
$GPRMC,120023.00,A,5913.900,N,01046.200,E,0.0,0.0,110924,,,A*55
$GPGGA,120023.00,5913.900,N,01046.200,E,1,06,1.0,40.0,M,39.0,M,,*51
$GPGSV,2,1,06,01,40,037,46,03,40,111,44,08,40,296,42,11,40,047,45*78
$GPGSV,2,2,06,17,40,269,41,22,40,094,43*7B
$GPRMC,120024.00,A,5913.900,N,01046.200,E,0.0,0.0,110924,,,A*52
$GPGGA,120024.00,5913.900,N,01046.200,E,1,06,1.0,40.0,M,39.0,M,,*56
$GPGSV,2,1,06,01,40,037,46,03,40,111,44,08,40,296,42,11,40,047,45*78
$GPGSV,2,2,06,17,40,269,41,22,40,094,43*7B
$GPRMC,120025.00,A,5913.900,N,01046.200,E,0.0,0.0,110924,,,A*53
$GPGGA,120025.00,5913.900,N,01046.200,E,1,06,1.0,40.0,M,39.0,M,,*57
$GPGSV,2,1,06,01,40,037,46,03,40,111,44,08,40,296,42,11,40,047,45*78
$GPGSV,2,2,06,17,40,269,41,22,40,094,43*7B
$GPRMC,120026.00,A,5913.900,N,01046.200,E,0.0,0.0,110924,,,A*50
$GPGGA,120026.00,5913.900,N,01046.200,E,1,06,1.0,40.0,M,39.0,M,,*54
$GPGSV,2,1,06,01,40,037,46,03,40,111,44,08,40,296,42,11,40,047,45*78
$GPGSV,2,2,06,17,40,269,41,22,40,094,43*7B
$GPRMC,120027.00,A,5913.900,N,01046.200,E,0.0,0.0,110924,,,A*51
$GPGGA,120027.00,5913.900,N,01046.200,E,1,06,1.0,40.0,M,39.0,M,,*55
$GPGSV,2,1,06,01,40,037,46,03,40,111,44,08,40,296,42,11,40,047,45*78
$GPGSV,2,2,06,17,40,269,41,22,40,094,43*7B
$GPRMC,120028.00,A,5913.900,N,01046.200,E,0.0,0.0,110924,,,A*5E
$GPGGA,120028.00,5913.900,N,01046.200,E,1,06,1.0,40.0,M,39.0,M,,*5A
$GPGSV,2,1,06,01,40,037,46,03,40,111,44,08,40,296,42,11,40,047,45*78
$GPGSV,2,2,06,17,40,269,41,22,40,094,43*7B
$GPRMC,120029.00,A,5913.900,N,01046.200,E,0.0,0.0,110924,,,A*5F
$GPGGA,120029.00,5913.900,N,01046.200,E,1,06,1.0,40.0,M,39.0,M,,*5B
$GPGSV,2,1,06,01,40,037,46,03,40,111,44,08,40,296,42,11,40,047,45*78
$GPGSV,2,2,06,17,40,269,41,22,40,094,43*7B
$GPRMC,120030.00,A,5913.900,N,01046.200,E,0.0,0.0,110924,,,A*57
$GPGGA,120030.00,5913.900,N,01046.200,E,1,06,1.0,40.0,M,39.0,M,,*53
$GPGSV,2,1,06,01,40,037,46,03,40,111,44,08,40,296,42,11,40,047,45*78
$GPGSV,2,2,06,17,40,269,41,22,40,094,43*7B
$GPRMC,120031.00,A,5913.900,N,01046.200,E,0.0,0.0,110924,,,A*56
$GPGGA,120031.00,5913.900,N,01046.200,E,1,06,1.0,40.0,M,39.0,M,,*52
$GPGSV,2,1,06,01,40,037,46,03,40,111,44,08,40,296,42,11,40,047,45*78
$GPGSV,2,2,06,17,40,269,41,22,40,094,43*7B
$GPRMC,120032.00,A,5913.900,N,01046.200,E,0.0,0.0,110924,,,A*55
$GPGGA,120032.00,5913.900,N,01046.200,E,1,06,1.0,40.0,M,39.0,M,,*51
$GPGSV,2,1,06,01,40,037,46,03,40,111,44,08,40,296,42,11,40,047,45*78
$GPGSV,2,2,06,17,40,269,41,22,40,094,43*7B
$GPRMC,120033.00,A,5913.900,N,01046.200,E,0.0,0.0,110924,,,A*54
$GPGGA,120033.00,5913.900,N,01046.200,E,1,06,1.0,40.0,M,39.0,M,,*50
$GPGSV,2,1,06,01,40,037,46,03,40,111,44,08,40,296,42,11,40,047,45*78
$GPGSV,2,2,06,17,40,269,41,22,40,094,43*7B
$GPRMC,120034.00,A,5913.900,N,01046.200,E,0.0,0.0,110924,,,A*53
$GPGGA,120034.00,5913.900,N,01046.200,E,1,06,1.0,40.0,M,39.0,M,,*57
$GPGSV,2,1,06,01,40,037,46,03,40,111,44,08,40,296,42,11,40,047,45*78
$GPGSV,2,2,06,17,40,269,41,22,40,094,43*7B
$GPRMC,120035.00,A,5913.900,N,01046.200,E,0.0,0.0,110924,,,A*52
$GPGGA,120035.00,5913.900,N,01046.200,E,1,06,1.0,40.0,M,39.0,M,,*56
$GPGSV,2,1,06,01,40,037,46,03,40,111,44,08,40,296,42,11,40,047,45*78
$GPGSV,2,2,06,17,40,269,41,22,40,094,43*7B
$GPRMC,120036.00,A,5913.900,N,01046.200,E,0.0,0.0,110924,,,A*51
$GPGGA,120036.00,5913.900,N,01046.200,E,1,06,1.0,40.0,M,39.0,M,,*55
$GPGSV,2,1,06,01,40,037,46,03,40,111,44,08,40,296,42,11,40,047,45*78
$GPGSV,2,2,06,17,40,269,41,22,40,094,43*7B
$GPRMC,120037.00,A,5913.900,N,01046.200,E,0.0,0.0,110924,,,A*50
$GPGGA,120037.00,5913.900,N,01046.200,E,1,06,1.0,40.0,M,39.0,M,,*54
$GPGSV,2,1,06,01,40,037,46,03,40,111,44,08,40,296,42,11,40,047,45*78
$GPGSV,2,2,06,17,40,269,41,22,40,094,43*7B
$GPRMC,120038.00,A,5913.900,N,01046.200,E,0.0,0.0,110924,,,A*5F
$GPGGA,120038.00,5913.900,N,01046.200,E,1,06,1.0,40.0,M,39.0,M,,*5B
$GPGSV,2,1,06,01,40,037,46,03,40,111,44,08,40,296,42,11,40,047,45*78
$GPGSV,2,2,06,17,40,269,41,22,40,094,43*7B
$GPRMC,120039.00,A,5913.900,N,01046.200,E,0.0,0.0,110924,,,A*5E
$GPGGA,120039.00,5913.900,N,01046.200,E,1,06,1.0,40.0,M,39.0,M,,*5A
$GPGSV,2,1,06,01,40,037,46,03,40,111,44,08,40,296,42,11,40,047,45*78
$GPGSV,2,2,06,17,40,269,41,22,40,094,43*7B
$GPRMC,120040.00,A,5913.900,N,01046.200,E,0.0,0.0,110924,,,A*50
$GPGGA,120040.00,5913.900,N,01046.200,E,1,06,1.0,40.0,M,39.0,M,,*54
$GPGSV,2,1,06,01,40,037,46,03,40,111,44,08,40,296,42,11,40,047,45*78
$GPGSV,2,2,06,17,40,269,41,22,40,094,43*7B
$GPRMC,120041.00,A,5913.900,N,01046.200,E,0.0,0.0,110924,,,A*51
$GPGGA,120041.00,5913.900,N,01046.200,E,1,06,1.0,40.0,M,39.0,M,,*55
$GPGSV,2,1,06,01,40,037,46,03,40,111,44,08,40,296,42,11,40,047,45*78
$GPGSV,2,2,06,17,40,269,41,22,40,094,43*7B
$GPRMC,120042.00,A,5913.900,N,01046.200,E,0.0,0.0,110924,,,A*52
$GPGGA,120042.00,5913.900,N,01046.200,E,1,06,1.0,40.0,M,39.0,M,,*56
$GPGSV,2,1,06,01,40,037,46,03,40,111,44,08,40,296,42,11,40,047,45*78
$GPGSV,2,2,06,17,40,269,41,22,40,094,43*7B
$GPRMC,120043.00,A,5913.900,N,01046.200,E,0.0,0.0,110924,,,A*53
$GPGGA,120043.00,5913.900,N,01046.200,E,1,06,1.0,40.0,M,39.0,M,,*57
$GPGSV,2,1,06,01,40,037,46,03,40,111,44,08,40,296,42,11,40,047,45*78
$GPGSV,2,2,06,17,40,269,41,22,40,094,43*7B
$GPRMC,120044.00,A,5913.900,N,01046.200,E,0.0,0.0,110924,,,A*54
$GPGGA,120044.00,5913.900,N,01046.200,E,1,06,1.0,40.0,M,39.0,M,,*50
$GPGSV,2,1,06,01,40,037,46,03,40,111,44,08,40,296,42,11,40,047,45*78
$GPGSV,2,2,06,17,40,269,41,22,40,094,43*7B
$GPRMC,120045.00,A,5913.900,N,01046.200,E,0.0,0.0,110924,,,A*55
$GPGGA,120045.00,5913.900,N,01046.200,E,1,06,1.0,40.0,M,39.0,M,,*51
$GPGSV,2,1,06,01,40,037,46,03,40,111,44,08,40,296,42,11,40,047,45*78
$GPGSV,2,2,06,17,40,269,41,22,40,094,43*7B
$GPRMC,120046.00,A,5913.900,N,01046.200,E,0.0,0.0,110924,,,A*56
$GPGGA,120046.00,5913.900,N,01046.200,E,1,06,1.0,40.0,M,39.0,M,,*52
$GPGSV,2,1,06,01,40,037,46,03,40,111,44,08,40,296,42,11,40,047,45*78
$GPGSV,2,2,06,17,40,269,41,22,40,094,43*7B
$GPRMC,120047.00,A,5913.900,N,01046.200,E,0.0,0.0,110924,,,A*57
$GPGGA,120047.00,5913.900,N,01046.200,E,1,06,1.0,40.0,M,39.0,M,,*53
$GPGSV,2,1,06,01,40,037,46,03,40,111,44,08,40,296,42,11,40,047,45*78
$GPGSV,2,2,06,17,40,269,41,22,40,094,43*7B
$GPRMC,120048.00,A,5913.900,N,01046.200,E,0.0,0.0,110924,,,A*58
$GPGGA,120048.00,5913.900,N,01046.200,E,1,06,1.0,40.0,M,39.0,M,,*5C
$GPGSV,2,1,06,01,40,037,46,03,40,111,44,08,40,296,42,11,40,047,45*78
$GPGSV,2,2,06,17,40,269,41,22,40,094,43*7B
$GPRMC,120049.00,A,5913.900,N,01046.200,E,0.0,0.0,110924,,,A*59
$GPGGA,120049.00,5913.900,N,01046.200,E,1,06,1.0,40.0,M,39.0,M,,*5D
$GPGSV,2,1,06,01,40,037,46,03,40,111,44,08,40,296,42,11,40,047,45*78
$GPGSV,2,2,06,17,40,269,41,22,40,094,43*7B
$GPRMC,120050.00,A,5913.900,N,01046.200,E,0.0,0.0,110924,,,A*51
$GPGGA,120050.00,5913.900,N,01046.200,E,1,06,1.0,40.0,M,39.0,M,,*55
$GPGSV,2,1,06,01,40,037,46,03,40,111,44,08,40,296,42,11,40,047,45*78
$GPGSV,2,2,06,17,40,269,41,22,40,094,43*7B
$GPRMC,120051.00,A,5913.900,N,01046.200,E,0.0,0.0,110924,,,A*50
$GPGGA,120051.00,5913.900,N,01046.200,E,1,06,1.0,40.0,M,39.0,M,,*54
$GPGSV,2,1,06,01,40,037,46,03,40,111,44,08,40,296,42,11,40,047,45*78
$GPGSV,2,2,06,17,40,269,41,22,40,094,43*7B
$GPRMC,120052.00,A,5913.900,N,01046.200,E,0.0,0.0,110924,,,A*53
$GPGGA,120052.00,5913.900,N,01046.200,E,1,06,1.0,40.0,M,39.0,M,,*57
$GPGSV,2,1,06,01,40,037,46,03,40,111,44,08,40,296,42,11,40,047,45*78
$GPGSV,2,2,06,17,40,269,41,22,40,094,43*7B
$GPRMC,120053.00,A,5913.900,N,01046.200,E,0.0,0.0,110924,,,A*52
$GPGGA,120053.00,5913.900,N,01046.200,E,1,06,1.0,40.0,M,39.0,M,,*56
$GPGSV,2,1,06,01,40,037,46,03,40,111,44,08,40,296,42,11,40,047,45*78
$GPGSV,2,2,06,17,40,269,41,22,40,094,43*7B
$GPRMC,120054.00,A,5913.900,N,01046.200,E,0.0,0.0,110924,,,A*55
$GPGGA,120054.00,5913.900,N,01046.200,E,1,06,1.0,40.0,M,39.0,M,,*51
$GPGSV,2,1,06,01,40,037,46,03,40,111,44,08,40,296,42,11,40,047,45*78
$GPGSV,2,2,06,17,40,269,41,22,40,094,43*7B
$GPRMC,120055.00,A,5913.900,N,01046.200,E,0.0,0.0,110924,,,A*54
$GPGGA,120055.00,5913.900,N,01046.200,E,1,06,1.0,40.0,M,39.0,M,,*50
$GPGSV,2,1,06,01,40,037,46,03,40,111,44,08,40,296,42,11,40,047,45*78
$GPGSV,2,2,06,17,40,269,41,22,40,094,43*7B
$GPRMC,120056.00,A,5913.900,N,01046.200,E,0.0,0.0,110924,,,A*57
$GPGGA,120056.00,5913.900,N,01046.200,E,1,06,1.0,40.0,M,39.0,M,,*53
$GPGSV,2,1,06,01,40,037,46,03,40,111,44,08,40,296,42,11,40,047,45*78
$GPGSV,2,2,06,17,40,269,41,22,40,094,43*7B
$GPRMC,120057.00,A,5913.900,N,01046.200,E,0.0,0.0,110924,,,A*56
$GPGGA,120057.00,5913.900,N,01046.200,E,1,06,1.0,40.0,M,39.0,M,,*52
$GPGSV,2,1,06,01,40,037,46,03,40,111,44,08,40,296,42,11,40,047,45*78
$GPGSV,2,2,06,17,40,269,41,22,40,094,43*7B
$GPRMC,120058.00,A,5913.900,N,01046.200,E,0.0,0.0,110924,,,A*59
$GPGGA,120058.00,5913.900,N,01046.200,E,1,06,1.0,40.0,M,39.0,M,,*5D
$GPGSV,2,1,06,01,40,037,46,03,40,111,44,08,40,296,42,11,40,047,45*78
$GPGSV,2,2,06,17,40,269,41,22,40,094,43*7B
$GPRMC,120059.00,A,5913.900,N,01046.200,E,0.0,0.0,110924,,,A*58
$GPGGA,120059.00,5913.900,N,01046.200,E,1,06,1.0,40.0,M,39.0,M,,*5C
$GPGSV,2,1,06,01,40,037,46,03,40,111,44,08,40,296,42,11,40,047,45*78
$GPGSV,2,2,06,17,40,269,41,22,40,094,43*7B
$GPRMC,120100.00,A,5913.900,N,01046.200,E,0.0,0.0,110924,,,A*55
$GPGGA,120100.00,5913.900,N,01046.200,E,1,06,1.0,40.0,M,39.0,M,,*51
$GPGSV,2,1,06,01,40,037,46,03,40,111,44,08,40,296,42,11,40,047,45*78
$GPGSV,2,2,06,17,40,269,41,22,40,094,43*7B
$GPRMC,120101.00,A,5913.900,N,01046.200,E,0.0,0.0,110924,,,A*54
$GPGGA,120101.00,5913.900,N,01046.200,E,1,06,1.0,40.0,M,39.0,M,,*50
$GPGSV,2,1,06,01,40,037,46,03,40,111,44,08,40,296,42,11,40,047,45*78
$GPGSV,2,2,06,17,40,269,41,22,40,094,43*7B
$GPRMC,120102.00,A,5913.900,N,01046.200,E,0.0,0.0,110924,,,A*57
$GPGGA,120102.00,5913.900,N,01046.200,E,1,06,1.0,40.0,M,39.0,M,,*53
$GPGSV,2,1,06,01,40,037,46,03,40,111,44,08,40,296,42,11,40,047,45*78
$GPGSV,2,2,06,17,40,269,41,22,40,094,43*7B
$GPRMC,120103.00,A,5913.900,N,01046.200,E,0.0,0.0,110924,,,A*56
$GPGGA,120103.00,5913.900,N,01046.200,E,1,06,1.0,40.0,M,39.0,M,,*52
$GPGSV,2,1,06,01,40,037,46,03,40,111,44,08,40,296,42,11,40,047,45*78
$GPGSV,2,2,06,17,40,269,41,22,40,094,43*7B
$GPRMC,120104.00,A,5913.900,N,01046.200,E,0.0,0.0,110924,,,A*51
$GPGGA,120104.00,5913.900,N,01046.200,E,1,06,1.0,40.0,M,39.0,M,,*55
$GPGSV,2,1,06,01,40,037,46,03,40,111,44,08,40,296,42,11,40,047,45*78
$GPGSV,2,2,06,17,40,269,41,22,40,094,43*7B
$GPRMC,120105.00,A,5913.900,N,01046.200,E,0.0,0.0,110924,,,A*50
$GPGGA,120105.00,5913.900,N,01046.200,E,1,06,1.0,40.0,M,39.0,M,,*54
$GPGSV,2,1,06,01,40,037,46,03,40,111,44,08,40,296,42,11,40,047,45*78
$GPGSV,2,2,06,17,40,269,41,22,40,094,43*7B
$GPRMC,120106.00,A,5913.900,N,01046.200,E,0.0,0.0,110924,,,A*53
$GPGGA,120106.00,5913.900,N,01046.200,E,1,06,1.0,40.0,M,39.0,M,,*57
$GPGSV,2,1,06,01,40,037,46,03,40,111,44,08,40,296,42,11,40,047,45*78
$GPGSV,2,2,06,17,40,269,41,22,40,094,43*7B
$GPRMC,120107.00,A,5913.900,N,01046.200,E,0.0,0.0,110924,,,A*52
$GPGGA,120107.00,5913.900,N,01046.200,E,1,06,1.0,40.0,M,39.0,M,,*56
$GPGSV,2,1,06,01,40,037,46,03,40,111,44,08,40,296,42,11,40,047,45*78
$GPGSV,2,2,06,17,40,269,41,22,40,094,43*7B
$GPRMC,120108.00,A,5913.900,N,01046.200,E,0.0,0.0,110924,,,A*5D
$GPGGA,120108.00,5913.900,N,01046.200,E,1,06,1.0,40.0,M,39.0,M,,*59
$GPGSV,2,1,06,01,40,037,46,03,40,111,44,08,40,296,42,11,40,047,45*78
$GPGSV,2,2,06,17,40,269,41,22,40,094,43*7B
$GPRMC,120109.00,A,5913.900,N,01046.200,E,0.0,0.0,110924,,,A*5C
$GPGGA,120109.00,5913.900,N,01046.200,E,1,06,1.0,40.0,M,39.0,M,,*58
$GPGSV,2,1,06,01,40,037,46,03,40,111,44,08,40,296,42,11,40,047,45*78
$GPGSV,2,2,06,17,40,269,41,22,40,094,43*7B
$GPRMC,120110.00,A,5913.900,N,01046.200,E,0.0,0.0,110924,,,A*54
$GPGGA,120110.00,5913.900,N,01046.200,E,1,06,1.0,40.0,M,39.0,M,,*50
$GPGSV,2,1,06,01,40,037,46,03,40,111,44,08,40,296,42,11,40,047,45*78
$GPGSV,2,2,06,17,40,269,41,22,40,094,43*7B
$GPRMC,120111.00,A,5913.900,N,01046.200,E,0.0,0.0,110924,,,A*55
$GPGGA,120111.00,5913.900,N,01046.200,E,1,06,1.0,40.0,M,39.0,M,,*51
$GPGSV,2,1,06,01,40,037,46,03,40,111,44,08,40,296,42,11,40,047,45*78
$GPGSV,2,2,06,17,40,269,41,22,40,094,43*7B
$GPRMC,120112.00,A,5913.900,N,01046.200,E,0.0,0.0,110924,,,A*56
$GPGGA,120112.00,5913.900,N,01046.200,E,1,06,1.0,40.0,M,39.0,M,,*52
$GPGSV,2,1,06,01,40,037,46,03,40,111,44,08,40,296,42,11,40,047,45*78
$GPGSV,2,2,06,17,40,269,41,22,40,094,43*7B
$GPRMC,120113.00,A,5913.900,N,01046.200,E,0.0,0.0,110924,,,A*57
$GPGGA,120113.00,5913.900,N,01046.200,E,1,06,1.0,40.0,M,39.0,M,,*53
$GPGSV,2,1,06,01,40,037,46,03,40,111,44,08,40,296,42,11,40,047,45*78
$GPGSV,2,2,06,17,40,269,41,22,40,094,43*7B
$GPRMC,120114.00,A,5913.900,N,01046.200,E,0.0,0.0,110924,,,A*50
$GPGGA,120114.00,5913.900,N,01046.200,E,1,06,1.0,40.0,M,39.0,M,,*54
$GPGSV,2,1,06,01,40,037,46,03,40,111,44,08,40,296,42,11,40,047,45*78
$GPGSV,2,2,06,17,40,269,41,22,40,094,43*7B
$GPRMC,120115.00,A,5913.900,N,01046.200,E,0.0,0.0,110924,,,A*51
$GPGGA,120115.00,5913.900,N,01046.200,E,1,06,1.0,40.0,M,39.0,M,,*55
$GPGSV,2,1,06,01,40,037,46,03,40,111,44,08,40,296,42,11,40,047,45*78
$GPGSV,2,2,06,17,40,269,41,22,40,094,43*7B
$GPRMC,120116.00,A,5913.900,N,01046.200,E,0.0,0.0,110924,,,A*52
$GPGGA,120116.00,5913.900,N,01046.200,E,1,06,1.0,40.0,M,39.0,M,,*56
$GPGSV,2,1,06,01,40,037,46,03,40,111,44,08,40,296,42,11,40,047,45*78
$GPGSV,2,2,06,17,40,269,41,22,40,094,43*7B
$GPRMC,120117.00,A,5913.900,N,01046.200,E,0.0,0.0,110924,,,A*53
$GPGGA,120117.00,5913.900,N,01046.200,E,1,06,1.0,40.0,M,39.0,M,,*57
$GPGSV,2,1,06,01,40,037,46,03,40,111,44,08,40,296,42,11,40,047,45*78
$GPGSV,2,2,06,17,40,269,41,22,40,094,43*7B
$GPRMC,120118.00,A,5913.900,N,01046.200,E,0.0,0.0,110924,,,A*5C
$GPGGA,120118.00,5913.900,N,01046.200,E,1,06,1.0,40.0,M,39.0,M,,*58
$GPGSV,2,1,06,01,40,037,46,03,40,111,44,08,40,296,42,11,40,047,45*78
$GPGSV,2,2,06,17,40,269,41,22,40,094,43*7B
$GPRMC,120119.00,A,5913.900,N,01046.200,E,0.0,0.0,110924,,,A*5D
$GPGGA,120119.00,5913.900,N,01046.200,E,1,06,1.0,40.0,M,39.0,M,,*59
$GPGSV,2,1,06,01,40,037,46,03,40,111,44,08,40,296,42,11,40,047,45*78
$GPGSV,2,2,06,17,40,269,41,22,40,094,43*7B
$GPRMC,120120.00,A,5913.900,N,01046.200,E,0.0,0.0,110924,,,A*57
$GPGGA,120120.00,5913.900,N,01046.200,E,1,06,1.0,40.0,M,39.0,M,,*53
$GPGSV,2,1,06,01,40,037,46,03,40,111,44,08,40,296,42,11,40,047,45*78
$GPGSV,2,2,06,17,40,269,41,22,40,094,43*7B
$GPRMC,120121.00,A,5913.900,N,01046.200,E,0.0,0.0,110924,,,A*56
$GPGGA,120121.00,5913.900,N,01046.200,E,1,06,1.0,40.0,M,39.0,M,,*52
$GPGSV,2,1,06,01,40,037,46,03,40,111,44,08,40,296,42,11,40,047,45*78
$GPGSV,2,2,06,17,40,269,41,22,40,094,43*7B
$GPRMC,120122.00,A,5913.900,N,01046.200,E,0.0,0.0,110924,,,A*55
$GPGGA,120122.00,5913.900,N,01046.200,E,1,06,1.0,40.0,M,39.0,M,,*51
$GPGSV,2,1,06,01,40,037,46,03,40,111,44,08,40,296,42,11,40,047,45*78
$GPGSV,2,2,06,17,40,269,41,22,40,094,43*7B
$GPRMC,120123.00,A,5913.900,N,01046.200,E,0.0,0.0,110924,,,A*54
$GPGGA,120123.00,5913.900,N,01046.200,E,1,06,1.0,40.0,M,39.0,M,,*50
$GPGSV,2,1,06,01,40,037,46,03,40,111,44,08,40,296,42,11,40,047,45*78
$GPGSV,2,2,06,17,40,269,41,22,40,094,43*7B
$GPRMC,120124.00,A,5913.900,N,01046.200,E,0.0,0.0,110924,,,A*53
$GPGGA,120124.00,5913.900,N,01046.200,E,1,06,1.0,40.0,M,39.0,M,,*57
$GPGSV,2,1,06,01,40,037,46,03,40,111,44,08,40,296,42,11,40,047,45*78
$GPGSV,2,2,06,17,40,269,41,22,40,094,43*7B
$GPRMC,120125.00,A,5913.900,N,01046.200,E,0.0,0.0,110924,,,A*52
$GPGGA,120125.00,5913.900,N,01046.200,E,1,06,1.0,40.0,M,39.0,M,,*56
$GPGSV,2,1,06,01,40,037,46,03,40,111,44,08,40,296,42,11,40,047,45*78
$GPGSV,2,2,06,17,40,269,41,22,40,094,43*7B
$GPRMC,120126.00,A,5913.900,N,01046.200,E,0.0,0.0,110924,,,A*51
$GPGGA,120126.00,5913.900,N,01046.200,E,1,06,1.0,40.0,M,39.0,M,,*55
$GPGSV,2,1,06,01,40,037,46,03,40,111,44,08,40,296,42,11,40,047,45*78
$GPGSV,2,2,06,17,40,269,41,22,40,094,43*7B
$GPRMC,120127.00,A,5913.900,N,01046.200,E,0.0,0.0,110924,,,A*50
$GPGGA,120127.00,5913.900,N,01046.200,E,1,06,1.0,40.0,M,39.0,M,,*54
$GPGSV,2,1,06,01,40,037,46,03,40,111,44,08,40,296,42,11,40,047,45*78
$GPGSV,2,2,06,17,40,269,41,22,40,094,43*7B
$GPRMC,120128.00,A,5913.900,N,01046.200,E,0.0,0.0,110924,,,A*5F
$GPGGA,120128.00,5913.900,N,01046.200,E,1,06,1.0,40.0,M,39.0,M,,*5B
$GPGSV,2,1,06,01,40,037,46,03,40,111,44,08,40,296,42,11,40,047,45*78
$GPGSV,2,2,06,17,40,269,41,22,40,094,43*7B
$GPRMC,120129.00,A,5913.900,N,01046.200,E,0.0,0.0,110924,,,A*5E
$GPGGA,120129.00,5913.900,N,01046.200,E,1,06,1.0,40.0,M,39.0,M,,*5A
$GPGSV,2,1,06,01,40,037,46,03,40,111,44,08,40,296,42,11,40,047,45*78
$GPGSV,2,2,06,17,40,269,41,22,40,094,43*7B
$GPRMC,120130.00,A,5913.900,N,01046.200,E,0.0,0.0,110924,,,A*56
$GPGGA,120130.00,5913.900,N,01046.200,E,1,06,1.0,40.0,M,39.0,M,,*52
$GPGSV,2,1,06,01,40,037,46,03,40,111,44,08,40,296,42,11,40,047,45*78
$GPGSV,2,2,06,17,40,269,41,22,40,094,43*7B
$GPRMC,120131.00,A,5913.900,N,01046.200,E,0.0,0.0,110924,,,A*57
$GPGGA,120131.00,5913.900,N,01046.200,E,1,06,1.0,40.0,M,39.0,M,,*53
$GPGSV,2,1,06,01,40,037,46,03,40,111,44,08,40,296,42,11,40,047,45*78
$GPGSV,2,2,06,17,40,269,41,22,40,094,43*7B
$GPRMC,120132.00,A,5913.900,N,01046.200,E,0.0,0.0,110924,,,A*54
$GPGGA,120132.00,5913.900,N,01046.200,E,1,06,1.0,40.0,M,39.0,M,,*50
$GPGSV,2,1,06,01,40,037,46,03,40,111,44,08,40,296,42,11,40,047,45*78
$GPGSV,2,2,06,17,40,269,41,22,40,094,43*7B
$GPRMC,120133.00,A,5913.900,N,01046.200,E,0.0,0.0,110924,,,A*55
$GPGGA,120133.00,5913.900,N,01046.200,E,1,06,1.0,40.0,M,39.0,M,,*51
$GPGSV,2,1,06,01,40,037,46,03,40,111,44,08,40,296,42,11,40,047,45*78
$GPGSV,2,2,06,17,40,269,41,22,40,094,43*7B
$GPRMC,120134.00,A,5913.900,N,01046.200,E,0.0,0.0,110924,,,A*52
$GPGGA,120134.00,5913.900,N,01046.200,E,1,06,1.0,40.0,M,39.0,M,,*56
$GPGSV,2,1,06,01,40,037,46,03,40,111,44,08,40,296,42,11,40,047,45*78
$GPGSV,2,2,06,17,40,269,41,22,40,094,43*7B
$GPRMC,120135.00,A,5913.900,N,01046.200,E,0.0,0.0,110924,,,A*53
$GPGGA,120135.00,5913.900,N,01046.200,E,1,06,1.0,40.0,M,39.0,M,,*57
$GPGSV,2,1,06,01,40,037,46,03,40,111,44,08,40,296,42,11,40,047,45*78
$GPGSV,2,2,06,17,40,269,41,22,40,094,43*7B
$GPRMC,120136.00,A,5913.900,N,01046.200,E,0.0,0.0,110924,,,A*50
$GPGGA,120136.00,5913.900,N,01046.200,E,1,06,1.0,40.0,M,39.0,M,,*54
$GPGSV,2,1,06,01,40,037,46,03,40,111,44,08,40,296,42,11,40,047,45*78
$GPGSV,2,2,06,17,40,269,41,22,40,094,43*7B
$GPRMC,120137.00,A,5913.900,N,01046.200,E,0.0,0.0,110924,,,A*51
$GPGGA,120137.00,5913.900,N,01046.200,E,1,06,1.0,40.0,M,39.0,M,,*55
$GPGSV,2,1,06,01,40,037,46,03,40,111,44,08,40,296,42,11,40,047,45*78
$GPGSV,2,2,06,17,40,269,41,22,40,094,43*7B
$GPRMC,120138.00,A,5913.900,N,01046.200,E,0.0,0.0,110924,,,A*5E
$GPGGA,120138.00,5913.900,N,01046.200,E,1,06,1.0,40.0,M,39.0,M,,*5A
$GPGSV,2,1,06,01,40,037,46,03,40,111,44,08,40,296,42,11,40,047,45*78
$GPGSV,2,2,06,17,40,269,41,22,40,094,43*7B
$GPRMC,120139.00,A,5913.900,N,01046.200,E,0.0,0.0,110924,,,A*5F
$GPGGA,120139.00,5913.900,N,01046.200,E,1,06,1.0,40.0,M,39.0,M,,*5B
$GPGSV,2,1,06,01,40,037,46,03,40,111,44,08,40,296,42,11,40,047,45*78
$GPGSV,2,2,06,17,40,269,41,22,40,094,43*7B
$GPRMC,120140.00,A,5913.900,N,01046.200,E,0.0,0.0,110924,,,A*51
$GPGGA,120140.00,5913.900,N,01046.200,E,1,06,1.0,40.0,M,39.0,M,,*55
$GPGSV,2,1,06,01,40,037,46,03,40,111,44,08,40,296,42,11,40,047,45*78
$GPGSV,2,2,06,17,40,269,41,22,40,094,43*7B
$GPRMC,120141.00,A,5913.900,N,01046.200,E,0.0,0.0,110924,,,A*50
$GPGGA,120141.00,5913.900,N,01046.200,E,1,06,1.0,40.0,M,39.0,M,,*54
$GPGSV,2,1,06,01,40,037,46,03,40,111,44,08,40,296,42,11,40,047,45*78
$GPGSV,2,2,06,17,40,269,41,22,40,094,43*7B
$GPRMC,120142.00,A,5913.900,N,01046.200,E,0.0,0.0,110924,,,A*53
$GPGGA,120142.00,5913.900,N,01046.200,E,1,06,1.0,40.0,M,39.0,M,,*57
$GPGSV,2,1,06,01,40,037,46,03,40,111,44,08,40,296,42,11,40,047,45*78
$GPGSV,2,2,06,17,40,269,41,22,40,094,43*7B
$GPRMC,120143.00,A,5913.900,N,01046.200,E,0.0,0.0,110924,,,A*52
$GPGGA,120143.00,5913.900,N,01046.200,E,1,06,1.0,40.0,M,39.0,M,,*56
$GPGSV,2,1,06,01,40,037,46,03,40,111,44,08,40,296,42,11,40,047,45*78
$GPGSV,2,2,06,17,40,269,41,22,40,094,43*7B
$GPRMC,120144.00,A,5913.900,N,01046.200,E,0.0,0.0,110924,,,A*55
$GPGGA,120144.00,5913.900,N,01046.200,E,1,06,1.0,40.0,M,39.0,M,,*51
$GPGSV,2,1,06,01,40,037,46,03,40,111,44,08,40,296,42,11,40,047,45*78
$GPGSV,2,2,06,17,40,269,41,22,40,094,43*7B
$GPRMC,120145.00,A,5913.900,N,01046.200,E,0.0,0.0,110924,,,A*54
$GPGGA,120145.00,5913.900,N,01046.200,E,1,06,1.0,40.0,M,39.0,M,,*50
$GPGSV,2,1,06,01,40,037,46,03,40,111,44,08,40,296,42,11,40,047,45*78
$GPGSV,2,2,06,17,40,269,41,22,40,094,43*7B
$GPRMC,120146.00,A,5913.900,N,01046.200,E,0.0,0.0,110924,,,A*57
$GPGGA,120146.00,5913.900,N,01046.200,E,1,06,1.0,40.0,M,39.0,M,,*53
$GPGSV,2,1,06,01,40,037,46,03,40,111,44,08,40,296,42,11,40,047,45*78
$GPGSV,2,2,06,17,40,269,41,22,40,094,43*7B
$GPRMC,120147.00,A,5913.900,N,01046.200,E,0.0,0.0,110924,,,A*56
$GPGGA,120147.00,5913.900,N,01046.200,E,1,06,1.0,40.0,M,39.0,M,,*52
$GPGSV,2,1,06,01,40,037,46,03,40,111,44,08,40,296,42,11,40,047,45*78
$GPGSV,2,2,06,17,40,269,41,22,40,094,43*7B
$GPRMC,120148.00,A,5913.900,N,01046.200,E,0.0,0.0,110924,,,A*59
$GPGGA,120148.00,5913.900,N,01046.200,E,1,06,1.0,40.0,M,39.0,M,,*5D
$GPGSV,2,1,06,01,40,037,46,03,40,111,44,08,40,296,42,11,40,047,45*78
$GPGSV,2,2,06,17,40,269,41,22,40,094,43*7B
$GPRMC,120149.00,A,5913.900,N,01046.200,E,0.0,0.0,110924,,,A*58
$GPGGA,120149.00,5913.900,N,01046.200,E,1,06,1.0,40.0,M,39.0,M,,*5C
$GPGSV,2,1,06,01,40,037,46,03,40,111,44,08,40,296,42,11,40,047,45*78
$GPGSV,2,2,06,17,40,269,41,22,40,094,43*7B
$GPRMC,120150.00,A,5913.900,N,01046.200,E,0.0,0.0,110924,,,A*50
$GPGGA,120150.00,5913.900,N,01046.200,E,1,06,1.0,40.0,M,39.0,M,,*54
$GPGSV,2,1,06,01,40,037,46,03,40,111,44,08,40,296,42,11,40,047,45*78
$GPGSV,2,2,06,17,40,269,41,22,40,094,43*7B
$GPRMC,120151.00,A,5913.900,N,01046.200,E,0.0,0.0,110924,,,A*51
$GPGGA,120151.00,5913.900,N,01046.200,E,1,06,1.0,40.0,M,39.0,M,,*55
$GPGSV,2,1,06,01,40,037,46,03,40,111,44,08,40,296,42,11,40,047,45*78
$GPGSV,2,2,06,17,40,269,41,22,40,094,43*7B
$GPRMC,120152.00,A,5913.900,N,01046.200,E,0.0,0.0,110924,,,A*52
$GPGGA,120152.00,5913.900,N,01046.200,E,1,06,1.0,40.0,M,39.0,M,,*56
$GPGSV,2,1,06,01,40,037,46,03,40,111,44,08,40,296,42,11,40,047,45*78
$GPGSV,2,2,06,17,40,269,41,22,40,094,43*7B
$GPRMC,120153.00,A,5913.900,N,01046.200,E,0.0,0.0,110924,,,A*53
$GPGGA,120153.00,5913.900,N,01046.200,E,1,06,1.0,40.0,M,39.0,M,,*57
$GPGSV,2,1,06,01,40,037,46,03,40,111,44,08,40,296,42,11,40,047,45*78
$GPGSV,2,2,06,17,40,269,41,22,40,094,43*7B
$GPRMC,120154.00,A,5913.900,N,01046.200,E,0.0,0.0,110924,,,A*54
$GPGGA,120154.00,5913.900,N,01046.200,E,1,06,1.0,40.0,M,39.0,M,,*50
$GPGSV,2,1,06,01,40,037,46,03,40,111,44,08,40,296,42,11,40,047,45*78
$GPGSV,2,2,06,17,40,269,41,22,40,094,43*7B
$GPRMC,120155.00,A,5913.900,N,01046.200,E,0.0,0.0,110924,,,A*55
$GPGGA,120155.00,5913.900,N,01046.200,E,1,06,1.0,40.0,M,39.0,M,,*51
$GPGSV,2,1,06,01,40,037,46,03,40,111,44,08,40,296,42,11,40,047,45*78
$GPGSV,2,2,06,17,40,269,41,22,40,094,43*7B
$GPRMC,120156.00,A,5913.900,N,01046.200,E,0.0,0.0,110924,,,A*56
$GPGGA,120156.00,5913.900,N,01046.200,E,1,06,1.0,40.0,M,39.0,M,,*52
$GPGSV,2,1,06,01,40,037,46,03,40,111,44,08,40,296,42,11,40,047,45*78
$GPGSV,2,2,06,17,40,269,41,22,40,094,43*7B
$GPRMC,120157.00,A,5913.900,N,01046.200,E,0.0,0.0,110924,,,A*57
$GPGGA,120157.00,5913.900,N,01046.200,E,1,06,1.0,40.0,M,39.0,M,,*53
$GPGSV,2,1,06,01,40,037,46,03,40,111,44,08,40,296,42,11,40,047,45*78
$GPGSV,2,2,06,17,40,269,41,22,40,094,43*7B
$GPRMC,120158.00,A,5913.900,N,01046.200,E,0.0,0.0,110924,,,A*58
$GPGGA,120158.00,5913.900,N,01046.200,E,1,06,1.0,40.0,M,39.0,M,,*5C
$GPGSV,2,1,06,01,40,037,46,03,40,111,44,08,40,296,42,11,40,047,45*78
$GPGSV,2,2,06,17,40,269,41,22,40,094,43*7B
$GPRMC,120159.00,A,5913.900,N,01046.200,E,0.0,0.0,110924,,,A*59
$GPGGA,120159.00,5913.900,N,01046.200,E,1,06,1.0,40.0,M,39.0,M,,*5D
$GPGSV,2,1,06,01,40,037,46,03,40,111,44,08,40,296,42,11,40,047,45*78
$GPGSV,2,2,06,17,40,269,41,22,40,094,43*7B
$GPRMC,120200.00,A,5913.900,N,01046.200,E,0.0,0.0,110924,,,A*56
$GPGGA,120200.00,5913.900,N,01046.200,E,1,04,1.0,40.0,M,39.0,M,,*50
$GPGSV,1,1,04,01,40,037,34,03,40,111,32,08,40,296,30,11,40,047,33*79
$GPRMC,120201.00,A,5913.900,N,01046.200,E,0.0,0.0,110924,,,A*57
$GPGGA,120201.00,5913.900,N,01046.200,E,1,04,1.0,40.0,M,39.0,M,,*51
$GPGSV,1,1,04,01,40,037,34,03,40,111,32,08,40,296,30,11,40,047,33*79
$GPRMC,120202.00,A,5913.900,N,01046.200,E,0.0,0.0,110924,,,A*54
$GPGGA,120202.00,5913.900,N,01046.200,E,1,04,1.0,40.0,M,39.0,M,,*52
$GPGSV,1,1,04,01,40,037,34,03,40,111,32,08,40,296,30,11,40,047,33*79
$GPRMC,120203.00,A,5913.900,N,01046.200,E,0.0,0.0,110924,,,A*55
$GPGGA,120203.00,5913.900,N,01046.200,E,1,04,1.0,40.0,M,39.0,M,,*53
$GPGSV,1,1,04,01,40,037,34,03,40,111,32,08,40,296,30,11,40,047,33*79
$GPRMC,120204.00,A,5913.900,N,01046.200,E,0.0,0.0,110924,,,A*52
$GPGGA,120204.00,5913.900,N,01046.200,E,1,04,1.0,40.0,M,39.0,M,,*54
$GPGSV,1,1,04,01,40,037,34,03,40,111,32,08,40,296,30,11,40,047,33*79
$GPRMC,120205.00,A,5913.900,N,01046.200,E,0.0,0.0,110924,,,A*53
$GPGGA,120205.00,5913.900,N,01046.200,E,1,04,1.0,40.0,M,39.0,M,,*55
$GPGSV,1,1,04,01,40,037,34,03,40,111,32,08,40,296,30,11,40,047,33*79
$GPRMC,120206.00,A,5913.900,N,01046.200,E,0.0,0.0,110924,,,A*50
$GPGGA,120206.00,5913.900,N,01046.200,E,1,04,1.0,40.0,M,39.0,M,,*56
$GPGSV,1,1,04,01,40,037,34,03,40,111,32,08,40,296,30,11,40,047,33*79
$GPRMC,120207.00,A,5913.900,N,01046.200,E,0.0,0.0,110924,,,A*51
$GPGGA,120207.00,5913.900,N,01046.200,E,1,04,1.0,40.0,M,39.0,M,,*57
$GPGSV,1,1,04,01,40,037,34,03,40,111,32,08,40,296,30,11,40,047,33*79
$GPRMC,120208.00,A,5913.900,N,01046.200,E,0.0,0.0,110924,,,A*5E
$GPGGA,120208.00,5913.900,N,01046.200,E,1,04,1.0,40.0,M,39.0,M,,*58
$GPGSV,1,1,04,01,40,037,34,03,40,111,32,08,40,296,30,11,40,047,33*79
$GPRMC,120209.00,A,5913.900,N,01046.200,E,0.0,0.0,110924,,,A*5F
$GPGGA,120209.00,5913.900,N,01046.200,E,1,04,1.0,40.0,M,39.0,M,,*59
$GPGSV,1,1,04,01,40,037,34,03,40,111,32,08,40,296,30,11,40,047,33*79
$GPRMC,120210.00,A,5913.900,N,01046.200,E,0.0,0.0,110924,,,A*57
$GPGGA,120210.00,5913.900,N,01046.200,E,1,04,1.0,40.0,M,39.0,M,,*51
$GPGSV,1,1,04,01,40,037,34,03,40,111,32,08,40,296,30,11,40,047,33*79
$GPRMC,120211.00,A,5913.900,N,01046.200,E,0.0,0.0,110924,,,A*56
$GPGGA,120211.00,5913.900,N,01046.200,E,1,04,1.0,40.0,M,39.0,M,,*50
$GPGSV,1,1,04,01,40,037,34,03,40,111,32,08,40,296,30,11,40,047,33*79
$GPRMC,120212.00,A,5913.900,N,01046.200,E,0.0,0.0,110924,,,A*55
$GPGGA,120212.00,5913.900,N,01046.200,E,1,04,1.0,40.0,M,39.0,M,,*53
$GPGSV,1,1,04,01,40,037,34,03,40,111,32,08,40,296,30,11,40,047,33*79
$GPRMC,120213.00,A,5913.900,N,01046.200,E,0.0,0.0,110924,,,A*54
$GPGGA,120213.00,5913.900,N,01046.200,E,1,04,1.0,40.0,M,39.0,M,,*52
$GPGSV,1,1,04,01,40,037,34,03,40,111,32,08,40,296,30,11,40,047,33*79
$GPRMC,120214.00,A,5913.900,N,01046.200,E,0.0,0.0,110924,,,A*53
$GPGGA,120214.00,5913.900,N,01046.200,E,1,04,1.0,40.0,M,39.0,M,,*55
$GPGSV,1,1,04,01,40,037,34,03,40,111,32,08,40,296,30,11,40,047,33*79
$GPRMC,120215.00,A,5913.900,N,01046.200,E,0.0,0.0,110924,,,A*52
$GPGGA,120215.00,5913.900,N,01046.200,E,1,04,1.0,40.0,M,39.0,M,,*54
$GPGSV,1,1,04,01,40,037,34,03,40,111,32,08,40,296,30,11,40,047,33*79
$GPRMC,120216.00,A,5913.900,N,01046.200,E,0.0,0.0,110924,,,A*51
$GPGGA,120216.00,5913.900,N,01046.200,E,1,04,1.0,40.0,M,39.0,M,,*57
$GPGSV,1,1,04,01,40,037,34,03,40,111,32,08,40,296,30,11,40,047,33*79
$GPRMC,120217.00,A,5913.900,N,01046.200,E,0.0,0.0,110924,,,A*50
$GPGGA,120217.00,5913.900,N,01046.200,E,1,04,1.0,40.0,M,39.0,M,,*56
$GPGSV,1,1,04,01,40,037,34,03,40,111,32,08,40,296,30,11,40,047,33*79
$GPRMC,120218.00,A,5913.900,N,01046.200,E,0.0,0.0,110924,,,A*5F
$GPGGA,120218.00,5913.900,N,01046.200,E,1,04,1.0,40.0,M,39.0,M,,*59
$GPGSV,1,1,04,01,40,037,34,03,40,111,32,08,40,296,30,11,40,047,33*79
$GPRMC,120219.00,A,5913.900,N,01046.200,E,0.0,0.0,110924,,,A*5E
$GPGGA,120219.00,5913.900,N,01046.200,E,1,04,1.0,40.0,M,39.0,M,,*58
$GPGSV,1,1,04,01,40,037,34,03,40,111,32,08,40,296,30,11,40,047,33*79
$GPRMC,120220.00,A,5913.900,N,01046.200,E,0.0,0.0,110924,,,A*54
$GPGGA,120220.00,5913.900,N,01046.200,E,1,04,1.0,40.0,M,39.0,M,,*52
$GPGSV,1,1,04,01,40,037,34,03,40,111,32,08,40,296,30,11,40,047,33*79
$GPRMC,120221.00,A,5913.900,N,01046.200,E,0.0,0.0,110924,,,A*55
$GPGGA,120221.00,5913.900,N,01046.200,E,1,04,1.0,40.0,M,39.0,M,,*53
$GPGSV,1,1,04,01,40,037,34,03,40,111,32,08,40,296,30,11,40,047,33*79
$GPRMC,120222.00,A,5913.900,N,01046.200,E,0.0,0.0,110924,,,A*56
$GPGGA,120222.00,5913.900,N,01046.200,E,1,04,1.0,40.0,M,39.0,M,,*50
$GPGSV,1,1,04,01,40,037,34,03,40,111,32,08,40,296,30,11,40,047,33*79
$GPRMC,120223.00,A,5913.900,N,01046.200,E,0.0,0.0,110924,,,A*57
$GPGGA,120223.00,5913.900,N,01046.200,E,1,04,1.0,40.0,M,39.0,M,,*51
$GPGSV,1,1,04,01,40,037,34,03,40,111,32,08,40,296,30,11,40,047,33*79
$GPRMC,120224.00,A,5913.900,N,01046.200,E,0.0,0.0,110924,,,A*50
$GPGGA,120224.00,5913.900,N,01046.200,E,1,04,1.0,40.0,M,39.0,M,,*56
$GPGSV,1,1,04,01,40,037,34,03,40,111,32,08,40,296,30,11,40,047,33*79
$GPRMC,120225.00,A,5913.900,N,01046.200,E,0.0,0.0,110924,,,A*51
$GPGGA,120225.00,5913.900,N,01046.200,E,1,04,1.0,40.0,M,39.0,M,,*57
$GPGSV,1,1,04,01,40,037,34,03,40,111,32,08,40,296,30,11,40,047,33*79
$GPRMC,120226.00,A,5913.900,N,01046.200,E,0.0,0.0,110924,,,A*52
$GPGGA,120226.00,5913.900,N,01046.200,E,1,04,1.0,40.0,M,39.0,M,,*54
$GPGSV,1,1,04,01,40,037,34,03,40,111,32,08,40,296,30,11,40,047,33*79
$GPRMC,120227.00,A,5913.900,N,01046.200,E,0.0,0.0,110924,,,A*53
$GPGGA,120227.00,5913.900,N,01046.200,E,1,04,1.0,40.0,M,39.0,M,,*55
$GPGSV,1,1,04,01,40,037,34,03,40,111,32,08,40,296,30,11,40,047,33*79
$GPRMC,120228.00,A,5913.900,N,01046.200,E,0.0,0.0,110924,,,A*5C
$GPGGA,120228.00,5913.900,N,01046.200,E,1,04,1.0,40.0,M,39.0,M,,*5A
$GPGSV,1,1,04,01,40,037,34,03,40,111,32,08,40,296,30,11,40,047,33*79
$GPRMC,120229.00,A,5913.900,N,01046.200,E,0.0,0.0,110924,,,A*5D
$GPGGA,120229.00,5913.900,N,01046.200,E,1,04,1.0,40.0,M,39.0,M,,*5B
$GPGSV,1,1,04,01,40,037,34,03,40,111,32,08,40,296,30,11,40,047,33*79
$GPRMC,120230.00,A,5913.900,N,01046.200,E,0.0,0.0,110924,,,A*55
$GPGGA,120230.00,5913.900,N,01046.200,E,1,04,1.0,40.0,M,39.0,M,,*53
$GPGSV,1,1,04,01,40,037,34,03,40,111,32,08,40,296,30,11,40,047,33*79
$GPRMC,120231.00,A,5913.900,N,01046.200,E,0.0,0.0,110924,,,A*54
$GPGGA,120231.00,5913.900,N,01046.200,E,1,04,1.0,40.0,M,39.0,M,,*52
$GPGSV,1,1,04,01,40,037,34,03,40,111,32,08,40,296,30,11,40,047,33*79
$GPRMC,120232.00,A,5913.900,N,01046.200,E,0.0,0.0,110924,,,A*57
$GPGGA,120232.00,5913.900,N,01046.200,E,1,04,1.0,40.0,M,39.0,M,,*51
$GPGSV,1,1,04,01,40,037,34,03,40,111,32,08,40,296,30,11,40,047,33*79
$GPRMC,120233.00,A,5913.900,N,01046.200,E,0.0,0.0,110924,,,A*56
$GPGGA,120233.00,5913.900,N,01046.200,E,1,04,1.0,40.0,M,39.0,M,,*50
$GPGSV,1,1,04,01,40,037,34,03,40,111,32,08,40,296,30,11,40,047,33*79
$GPRMC,120234.00,A,5913.900,N,01046.200,E,0.0,0.0,110924,,,A*51
$GPGGA,120234.00,5913.900,N,01046.200,E,1,04,1.0,40.0,M,39.0,M,,*57
$GPGSV,1,1,04,01,40,037,34,03,40,111,32,08,40,296,30,11,40,047,33*79
$GPRMC,120235.00,A,5913.900,N,01046.200,E,0.0,0.0,110924,,,A*50
$GPGGA,120235.00,5913.900,N,01046.200,E,1,04,1.0,40.0,M,39.0,M,,*56
$GPGSV,1,1,04,01,40,037,34,03,40,111,32,08,40,296,30,11,40,047,33*79
$GPRMC,120236.00,A,5913.900,N,01046.200,E,0.0,0.0,110924,,,A*53
$GPGGA,120236.00,5913.900,N,01046.200,E,1,04,1.0,40.0,M,39.0,M,,*55
$GPGSV,1,1,04,01,40,037,34,03,40,111,32,08,40,296,30,11,40,047,33*79
$GPRMC,120237.00,A,5913.900,N,01046.200,E,0.0,0.0,110924,,,A*52
$GPGGA,120237.00,5913.900,N,01046.200,E,1,04,1.0,40.0,M,39.0,M,,*54
$GPGSV,1,1,04,01,40,037,34,03,40,111,32,08,40,296,30,11,40,047,33*79
$GPRMC,120238.00,A,5913.900,N,01046.200,E,0.0,0.0,110924,,,A*5D
$GPGGA,120238.00,5913.900,N,01046.200,E,1,04,1.0,40.0,M,39.0,M,,*5B
$GPGSV,1,1,04,01,40,037,34,03,40,111,32,08,40,296,30,11,40,047,33*79
$GPRMC,120239.00,A,5913.900,N,01046.200,E,0.0,0.0,110924,,,A*5C
$GPGGA,120239.00,5913.900,N,01046.200,E,1,04,1.0,40.0,M,39.0,M,,*5A
$GPGSV,1,1,04,01,40,037,34,03,40,111,32,08,40,296,30,11,40,047,33*79
$GPRMC,120240.00,A,5913.900,N,01046.200,E,0.0,0.0,110924,,,A*52
$GPGGA,120240.00,5913.900,N,01046.200,E,1,04,1.0,40.0,M,39.0,M,,*54
$GPGSV,1,1,04,01,40,037,34,03,40,111,32,08,40,296,30,11,40,047,33*79
$GPRMC,120241.00,A,5913.900,N,01046.200,E,0.0,0.0,110924,,,A*53
$GPGGA,120241.00,5913.900,N,01046.200,E,1,04,1.0,40.0,M,39.0,M,,*55
$GPGSV,1,1,04,01,40,037,34,03,40,111,32,08,40,296,30,11,40,047,33*79
$GPRMC,120242.00,A,5913.900,N,01046.200,E,0.0,0.0,110924,,,A*50
$GPGGA,120242.00,5913.900,N,01046.200,E,1,04,1.0,40.0,M,39.0,M,,*56
$GPGSV,1,1,04,01,40,037,34,03,40,111,32,08,40,296,30,11,40,047,33*79
$GPRMC,120243.00,A,5913.900,N,01046.200,E,0.0,0.0,110924,,,A*51
$GPGGA,120243.00,5913.900,N,01046.200,E,1,04,1.0,40.0,M,39.0,M,,*57
$GPGSV,1,1,04,01,40,037,34,03,40,111,32,08,40,296,30,11,40,047,33*79
$GPRMC,120244.00,A,5913.900,N,01046.200,E,0.0,0.0,110924,,,A*56
$GPGGA,120244.00,5913.900,N,01046.200,E,1,04,1.0,40.0,M,39.0,M,,*50
$GPGSV,1,1,04,01,40,037,34,03,40,111,32,08,40,296,30,11,40,047,33*79
$GPRMC,120245.00,A,5913.900,N,01046.200,E,0.0,0.0,110924,,,A*57
$GPGGA,120245.00,5913.900,N,01046.200,E,1,04,1.0,40.0,M,39.0,M,,*51
$GPGSV,1,1,04,01,40,037,34,03,40,111,32,08,40,296,30,11,40,047,33*79
$GPRMC,120246.00,A,5913.900,N,01046.200,E,0.0,0.0,110924,,,A*54
$GPGGA,120246.00,5913.900,N,01046.200,E,1,04,1.0,40.0,M,39.0,M,,*52
$GPGSV,1,1,04,01,40,037,34,03,40,111,32,08,40,296,30,11,40,047,33*79
$GPRMC,120247.00,A,5913.900,N,01046.200,E,0.0,0.0,110924,,,A*55
$GPGGA,120247.00,5913.900,N,01046.200,E,1,04,1.0,40.0,M,39.0,M,,*53
$GPGSV,1,1,04,01,40,037,34,03,40,111,32,08,40,296,30,11,40,047,33*79
$GPRMC,120248.00,A,5913.900,N,01046.200,E,0.0,0.0,110924,,,A*5A
$GPGGA,120248.00,5913.900,N,01046.200,E,1,04,1.0,40.0,M,39.0,M,,*5C
$GPGSV,1,1,04,01,40,037,34,03,40,111,32,08,40,296,30,11,40,047,33*79
$GPRMC,120249.00,A,5913.900,N,01046.200,E,0.0,0.0,110924,,,A*5B
$GPGGA,120249.00,5913.900,N,01046.200,E,1,04,1.0,40.0,M,39.0,M,,*5D
$GPGSV,1,1,04,01,40,037,34,03,40,111,32,08,40,296,30,11,40,047,33*79
$GPRMC,120250.00,A,5913.900,N,01046.200,E,0.0,0.0,110924,,,A*53
$GPGGA,120250.00,5913.900,N,01046.200,E,1,04,1.0,40.0,M,39.0,M,,*55
$GPGSV,1,1,04,01,40,037,34,03,40,111,32,08,40,296,30,11,40,047,33*79
$GPRMC,120251.00,A,5913.900,N,01046.200,E,0.0,0.0,110924,,,A*52
$GPGGA,120251.00,5913.900,N,01046.200,E,1,04,1.0,40.0,M,39.0,M,,*54
$GPGSV,1,1,04,01,40,037,34,03,40,111,32,08,40,296,30,11,40,047,33*79
$GPRMC,120252.00,A,5913.900,N,01046.200,E,0.0,0.0,110924,,,A*51
$GPGGA,120252.00,5913.900,N,01046.200,E,1,04,1.0,40.0,M,39.0,M,,*57
$GPGSV,1,1,04,01,40,037,34,03,40,111,32,08,40,296,30,11,40,047,33*79
$GPRMC,120253.00,A,5913.900,N,01046.200,E,0.0,0.0,110924,,,A*50
$GPGGA,120253.00,5913.900,N,01046.200,E,1,04,1.0,40.0,M,39.0,M,,*56
$GPGSV,1,1,04,01,40,037,34,03,40,111,32,08,40,296,30,11,40,047,33*79
$GPRMC,120254.00,A,5913.900,N,01046.200,E,0.0,0.0,110924,,,A*57
$GPGGA,120254.00,5913.900,N,01046.200,E,1,04,1.0,40.0,M,39.0,M,,*51
$GPGSV,1,1,04,01,40,037,34,03,40,111,32,08,40,296,30,11,40,047,33*79
$GPRMC,120255.00,A,5913.900,N,01046.200,E,0.0,0.0,110924,,,A*56
$GPGGA,120255.00,5913.900,N,01046.200,E,1,04,1.0,40.0,M,39.0,M,,*50
$GPGSV,1,1,04,01,40,037,34,03,40,111,32,08,40,296,30,11,40,047,33*79
$GPRMC,120256.00,A,5913.900,N,01046.200,E,0.0,0.0,110924,,,A*55
$GPGGA,120256.00,5913.900,N,01046.200,E,1,04,1.0,40.0,M,39.0,M,,*53
$GPGSV,1,1,04,01,40,037,34,03,40,111,32,08,40,296,30,11,40,047,33*79
$GPRMC,120257.00,A,5913.900,N,01046.200,E,0.0,0.0,110924,,,A*54
$GPGGA,120257.00,5913.900,N,01046.200,E,1,04,1.0,40.0,M,39.0,M,,*52
$GPGSV,1,1,04,01,40,037,34,03,40,111,32,08,40,296,30,11,40,047,33*79
$GPRMC,120258.00,A,5913.900,N,01046.200,E,0.0,0.0,110924,,,A*5B
$GPGGA,120258.00,5913.900,N,01046.200,E,1,04,1.0,40.0,M,39.0,M,,*5D
$GPGSV,1,1,04,01,40,037,34,03,40,111,32,08,40,296,30,11,40,047,33*79
$GPRMC,120259.00,A,5913.900,N,01046.200,E,0.0,0.0,110924,,,A*5A
$GPGGA,120259.00,5913.900,N,01046.200,E,1,04,1.0,40.0,M,39.0,M,,*5C
$GPGSV,1,1,04,01,40,037,34,03,40,111,32,08,40,296,30,11,40,047,33*79
$GPRMC,120300.00,A,5913.900,N,01046.200,E,0.0,0.0,110924,,,A*57
$GPGGA,120300.00,5913.900,N,01046.200,E,1,04,1.0,40.0,M,39.0,M,,*51
$GPGSV,1,1,04,01,40,037,34,03,40,111,32,08,40,296,30,11,40,047,33*79
$GPRMC,120301.00,A,5913.900,N,01046.200,E,0.0,0.0,110924,,,A*56
$GPGGA,120301.00,5913.900,N,01046.200,E,1,04,1.0,40.0,M,39.0,M,,*50
$GPGSV,1,1,04,01,40,037,34,03,40,111,32,08,40,296,30,11,40,047,33*79
$GPRMC,120302.00,A,5913.900,N,01046.200,E,0.0,0.0,110924,,,A*55
$GPGGA,120302.00,5913.900,N,01046.200,E,1,04,1.0,40.0,M,39.0,M,,*53
$GPGSV,1,1,04,01,40,037,34,03,40,111,32,08,40,296,30,11,40,047,33*79
$GPRMC,120303.00,A,5913.900,N,01046.200,E,0.0,0.0,110924,,,A*54
$GPGGA,120303.00,5913.900,N,01046.200,E,1,04,1.0,40.0,M,39.0,M,,*52
$GPGSV,1,1,04,01,40,037,34,03,40,111,32,08,40,296,30,11,40,047,33*79
$GPRMC,120304.00,A,5913.900,N,01046.200,E,0.0,0.0,110924,,,A*53
$GPGGA,120304.00,5913.900,N,01046.200,E,1,04,1.0,40.0,M,39.0,M,,*55
$GPGSV,1,1,04,01,40,037,34,03,40,111,32,08,40,296,30,11,40,047,33*79
$GPRMC,120305.00,A,5913.900,N,01046.200,E,0.0,0.0,110924,,,A*52
$GPGGA,120305.00,5913.900,N,01046.200,E,1,04,1.0,40.0,M,39.0,M,,*54
$GPGSV,1,1,04,01,40,037,34,03,40,111,32,08,40,296,30,11,40,047,33*79
$GPRMC,120306.00,A,5913.900,N,01046.200,E,0.0,0.0,110924,,,A*51
$GPGGA,120306.00,5913.900,N,01046.200,E,1,04,1.0,40.0,M,39.0,M,,*57
$GPGSV,1,1,04,01,40,037,34,03,40,111,32,08,40,296,30,11,40,047,33*79
$GPRMC,120307.00,A,5913.900,N,01046.200,E,0.0,0.0,110924,,,A*50
$GPGGA,120307.00,5913.900,N,01046.200,E,1,04,1.0,40.0,M,39.0,M,,*56
$GPGSV,1,1,04,01,40,037,34,03,40,111,32,08,40,296,30,11,40,047,33*79
$GPRMC,120308.00,A,5913.900,N,01046.200,E,0.0,0.0,110924,,,A*5F
$GPGGA,120308.00,5913.900,N,01046.200,E,1,04,1.0,40.0,M,39.0,M,,*59
$GPGSV,1,1,04,01,40,037,34,03,40,111,32,08,40,296,30,11,40,047,33*79
$GPRMC,120309.00,A,5913.900,N,01046.200,E,0.0,0.0,110924,,,A*5E
$GPGGA,120309.00,5913.900,N,01046.200,E,1,04,1.0,40.0,M,39.0,M,,*58
$GPGSV,1,1,04,01,40,037,34,03,40,111,32,08,40,296,30,11,40,047,33*79
$GPRMC,120310.00,A,5913.900,N,01046.200,E,0.0,0.0,110924,,,A*56
$GPGGA,120310.00,5913.900,N,01046.200,E,1,04,1.0,40.0,M,39.0,M,,*50
$GPGSV,1,1,04,01,40,037,34,03,40,111,32,08,40,296,30,11,40,047,33*79
$GPRMC,120311.00,A,5913.900,N,01046.200,E,0.0,0.0,110924,,,A*57
$GPGGA,120311.00,5913.900,N,01046.200,E,1,04,1.0,40.0,M,39.0,M,,*51
$GPGSV,1,1,04,01,40,037,34,03,40,111,32,08,40,296,30,11,40,047,33*79
$GPRMC,120312.00,A,5913.900,N,01046.200,E,0.0,0.0,110924,,,A*54
$GPGGA,120312.00,5913.900,N,01046.200,E,1,04,1.0,40.0,M,39.0,M,,*52
$GPGSV,1,1,04,01,40,037,34,03,40,111,32,08,40,296,30,11,40,047,33*79
$GPRMC,120313.00,A,5913.900,N,01046.200,E,0.0,0.0,110924,,,A*55
$GPGGA,120313.00,5913.900,N,01046.200,E,1,04,1.0,40.0,M,39.0,M,,*53
$GPGSV,1,1,04,01,40,037,34,03,40,111,32,08,40,296,30,11,40,047,33*79
$GPRMC,120314.00,A,5913.900,N,01046.200,E,0.0,0.0,110924,,,A*52
$GPGGA,120314.00,5913.900,N,01046.200,E,1,04,1.0,40.0,M,39.0,M,,*54
$GPGSV,1,1,04,01,40,037,34,03,40,111,32,08,40,296,30,11,40,047,33*79
$GPRMC,120315.00,A,5913.900,N,01046.200,E,0.0,0.0,110924,,,A*53
$GPGGA,120315.00,5913.900,N,01046.200,E,1,04,1.0,40.0,M,39.0,M,,*55
$GPGSV,1,1,04,01,40,037,34,03,40,111,32,08,40,296,30,11,40,047,33*79
$GPRMC,120316.00,A,5913.900,N,01046.200,E,0.0,0.0,110924,,,A*50
$GPGGA,120316.00,5913.900,N,01046.200,E,1,04,1.0,40.0,M,39.0,M,,*56
$GPGSV,1,1,04,01,40,037,34,03,40,111,32,08,40,296,30,11,40,047,33*79
$GPRMC,120317.00,A,5913.900,N,01046.200,E,0.0,0.0,110924,,,A*51
$GPGGA,120317.00,5913.900,N,01046.200,E,1,04,1.0,40.0,M,39.0,M,,*57
$GPGSV,1,1,04,01,40,037,34,03,40,111,32,08,40,296,30,11,40,047,33*79
$GPRMC,120318.00,A,5913.900,N,01046.200,E,0.0,0.0,110924,,,A*5E
$GPGGA,120318.00,5913.900,N,01046.200,E,1,04,1.0,40.0,M,39.0,M,,*58
$GPGSV,1,1,04,01,40,037,34,03,40,111,32,08,40,296,30,11,40,047,33*79
$GPRMC,120319.00,A,5913.900,N,01046.200,E,0.0,0.0,110924,,,A*5F
$GPGGA,120319.00,5913.900,N,01046.200,E,1,04,1.0,40.0,M,39.0,M,,*59
$GPGSV,1,1,04,01,40,037,34,03,40,111,32,08,40,296,30,11,40,047,33*79
$GPRMC,120320.00,A,5913.900,N,01046.200,E,0.0,0.0,110924,,,A*55
$GPGGA,120320.00,5913.900,N,01046.200,E,1,04,1.0,40.0,M,39.0,M,,*53
$GPGSV,1,1,04,01,40,037,34,03,40,111,32,08,40,296,30,11,40,047,33*79
$GPRMC,120321.00,A,5913.900,N,01046.200,E,0.0,0.0,110924,,,A*54
$GPGGA,120321.00,5913.900,N,01046.200,E,1,04,1.0,40.0,M,39.0,M,,*52
$GPGSV,1,1,04,01,40,037,34,03,40,111,32,08,40,296,30,11,40,047,33*79
$GPRMC,120322.00,A,5913.900,N,01046.200,E,0.0,0.0,110924,,,A*57
$GPGGA,120322.00,5913.900,N,01046.200,E,1,04,1.0,40.0,M,39.0,M,,*51
$GPGSV,1,1,04,01,40,037,34,03,40,111,32,08,40,296,30,11,40,047,33*79
$GPRMC,120323.00,A,5913.900,N,01046.200,E,0.0,0.0,110924,,,A*56
$GPGGA,120323.00,5913.900,N,01046.200,E,1,04,1.0,40.0,M,39.0,M,,*50
$GPGSV,1,1,04,01,40,037,34,03,40,111,32,08,40,296,30,11,40,047,33*79
$GPRMC,120324.00,A,5913.900,N,01046.200,E,0.0,0.0,110924,,,A*51
$GPGGA,120324.00,5913.900,N,01046.200,E,1,04,1.0,40.0,M,39.0,M,,*57
$GPGSV,1,1,04,01,40,037,34,03,40,111,32,08,40,296,30,11,40,047,33*79
$GPRMC,120325.00,A,5913.900,N,01046.200,E,0.0,0.0,110924,,,A*50
$GPGGA,120325.00,5913.900,N,01046.200,E,1,04,1.0,40.0,M,39.0,M,,*56
$GPGSV,1,1,04,01,40,037,34,03,40,111,32,08,40,296,30,11,40,047,33*79
$GPRMC,120326.00,A,5913.900,N,01046.200,E,0.0,0.0,110924,,,A*53
$GPGGA,120326.00,5913.900,N,01046.200,E,1,04,1.0,40.0,M,39.0,M,,*55
$GPGSV,1,1,04,01,40,037,34,03,40,111,32,08,40,296,30,11,40,047,33*79
$GPRMC,120327.00,A,5913.900,N,01046.200,E,0.0,0.0,110924,,,A*52
$GPGGA,120327.00,5913.900,N,01046.200,E,1,04,1.0,40.0,M,39.0,M,,*54
$GPGSV,1,1,04,01,40,037,34,03,40,111,32,08,40,296,30,11,40,047,33*79
$GPRMC,120328.00,A,5913.900,N,01046.200,E,0.0,0.0,110924,,,A*5D
$GPGGA,120328.00,5913.900,N,01046.200,E,1,04,1.0,40.0,M,39.0,M,,*5B
$GPGSV,1,1,04,01,40,037,34,03,40,111,32,08,40,296,30,11,40,047,33*79
$GPRMC,120329.00,A,5913.900,N,01046.200,E,0.0,0.0,110924,,,A*5C
$GPGGA,120329.00,5913.900,N,01046.200,E,1,04,1.0,40.0,M,39.0,M,,*5A
$GPGSV,1,1,04,01,40,037,34,03,40,111,32,08,40,296,30,11,40,047,33*79
$GPRMC,120330.00,A,5913.900,N,01046.200,E,0.0,0.0,110924,,,A*54
$GPGGA,120330.00,5913.900,N,01046.200,E,1,04,1.0,40.0,M,39.0,M,,*52
$GPGSV,1,1,04,01,40,037,34,03,40,111,32,08,40,296,30,11,40,047,33*79
$GPRMC,120331.00,A,5913.900,N,01046.200,E,0.0,0.0,110924,,,A*55
$GPGGA,120331.00,5913.900,N,01046.200,E,1,04,1.0,40.0,M,39.0,M,,*53
$GPGSV,1,1,04,01,40,037,34,03,40,111,32,08,40,296,30,11,40,047,33*79
$GPRMC,120332.00,A,5913.900,N,01046.200,E,0.0,0.0,110924,,,A*56
$GPGGA,120332.00,5913.900,N,01046.200,E,1,04,1.0,40.0,M,39.0,M,,*50
$GPGSV,1,1,04,01,40,037,34,03,40,111,32,08,40,296,30,11,40,047,33*79
$GPRMC,120333.00,A,5913.900,N,01046.200,E,0.0,0.0,110924,,,A*57
$GPGGA,120333.00,5913.900,N,01046.200,E,1,04,1.0,40.0,M,39.0,M,,*51
$GPGSV,1,1,04,01,40,037,34,03,40,111,32,08,40,296,30,11,40,047,33*79
$GPRMC,120334.00,A,5913.900,N,01046.200,E,0.0,0.0,110924,,,A*50
$GPGGA,120334.00,5913.900,N,01046.200,E,1,04,1.0,40.0,M,39.0,M,,*56
$GPGSV,1,1,04,01,40,037,34,03,40,111,32,08,40,296,30,11,40,047,33*79
$GPRMC,120335.00,A,5913.900,N,01046.200,E,0.0,0.0,110924,,,A*51
$GPGGA,120335.00,5913.900,N,01046.200,E,1,04,1.0,40.0,M,39.0,M,,*57
$GPGSV,1,1,04,01,40,037,34,03,40,111,32,08,40,296,30,11,40,047,33*79
$GPRMC,120336.00,A,5913.900,N,01046.200,E,0.0,0.0,110924,,,A*52
$GPGGA,120336.00,5913.900,N,01046.200,E,1,04,1.0,40.0,M,39.0,M,,*54
$GPGSV,1,1,04,01,40,037,34,03,40,111,32,08,40,296,30,11,40,047,33*79
$GPRMC,120337.00,A,5913.900,N,01046.200,E,0.0,0.0,110924,,,A*53
$GPGGA,120337.00,5913.900,N,01046.200,E,1,04,1.0,40.0,M,39.0,M,,*55
$GPGSV,1,1,04,01,40,037,34,03,40,111,32,08,40,296,30,11,40,047,33*79
$GPRMC,120338.00,A,5913.900,N,01046.200,E,0.0,0.0,110924,,,A*5C
$GPGGA,120338.00,5913.900,N,01046.200,E,1,04,1.0,40.0,M,39.0,M,,*5A
$GPGSV,1,1,04,01,40,037,34,03,40,111,32,08,40,296,30,11,40,047,33*79
$GPRMC,120339.00,A,5913.900,N,01046.200,E,0.0,0.0,110924,,,A*5D
$GPGGA,120339.00,5913.900,N,01046.200,E,1,04,1.0,40.0,M,39.0,M,,*5B
$GPGSV,1,1,04,01,40,037,34,03,40,111,32,08,40,296,30,11,40,047,33*79
$GPRMC,120340.00,A,5913.900,N,01046.200,E,0.0,0.0,110924,,,A*53
$GPGGA,120340.00,5913.900,N,01046.200,E,1,04,1.0,40.0,M,39.0,M,,*55
$GPGSV,1,1,04,01,40,037,34,03,40,111,32,08,40,296,30,11,40,047,33*79
$GPRMC,120341.00,A,5913.900,N,01046.200,E,0.0,0.0,110924,,,A*52
$GPGGA,120341.00,5913.900,N,01046.200,E,1,04,1.0,40.0,M,39.0,M,,*54
$GPGSV,1,1,04,01,40,037,34,03,40,111,32,08,40,296,30,11,40,047,33*79
$GPRMC,120342.00,A,5913.900,N,01046.200,E,0.0,0.0,110924,,,A*51
$GPGGA,120342.00,5913.900,N,01046.200,E,1,04,1.0,40.0,M,39.0,M,,*57
$GPGSV,1,1,04,01,40,037,34,03,40,111,32,08,40,296,30,11,40,047,33*79
$GPRMC,120343.00,A,5913.900,N,01046.200,E,0.0,0.0,110924,,,A*50
$GPGGA,120343.00,5913.900,N,01046.200,E,1,04,1.0,40.0,M,39.0,M,,*56
$GPGSV,1,1,04,01,40,037,34,03,40,111,32,08,40,296,30,11,40,047,33*79
$GPRMC,120344.00,A,5913.900,N,01046.200,E,0.0,0.0,110924,,,A*57
$GPGGA,120344.00,5913.900,N,01046.200,E,1,04,1.0,40.0,M,39.0,M,,*51
$GPGSV,1,1,04,01,40,037,34,03,40,111,32,08,40,296,30,11,40,047,33*79
$GPRMC,120345.00,A,5913.900,N,01046.200,E,0.0,0.0,110924,,,A*56
$GPGGA,120345.00,5913.900,N,01046.200,E,1,04,1.0,40.0,M,39.0,M,,*50
$GPGSV,1,1,04,01,40,037,34,03,40,111,32,08,40,296,30,11,40,047,33*79
$GPRMC,120346.00,A,5913.900,N,01046.200,E,0.0,0.0,110924,,,A*55
$GPGGA,120346.00,5913.900,N,01046.200,E,1,04,1.0,40.0,M,39.0,M,,*53
$GPGSV,1,1,04,01,40,037,34,03,40,111,32,08,40,296,30,11,40,047,33*79
$GPRMC,120347.00,A,5913.900,N,01046.200,E,0.0,0.0,110924,,,A*54
$GPGGA,120347.00,5913.900,N,01046.200,E,1,04,1.0,40.0,M,39.0,M,,*52
$GPGSV,1,1,04,01,40,037,34,03,40,111,32,08,40,296,30,11,40,047,33*79
$GPRMC,120348.00,A,5913.900,N,01046.200,E,0.0,0.0,110924,,,A*5B
$GPGGA,120348.00,5913.900,N,01046.200,E,1,04,1.0,40.0,M,39.0,M,,*5D
$GPGSV,1,1,04,01,40,037,34,03,40,111,32,08,40,296,30,11,40,047,33*79
$GPRMC,120349.00,A,5913.900,N,01046.200,E,0.0,0.0,110924,,,A*5A
$GPGGA,120349.00,5913.900,N,01046.200,E,1,04,1.0,40.0,M,39.0,M,,*5C
$GPGSV,1,1,04,01,40,037,34,03,40,111,32,08,40,296,30,11,40,047,33*79
$GPRMC,120350.00,A,5913.900,N,01046.200,E,0.0,0.0,110924,,,A*52
$GPGGA,120350.00,5913.900,N,01046.200,E,1,04,1.0,40.0,M,39.0,M,,*54
$GPGSV,1,1,04,01,40,037,34,03,40,111,32,08,40,296,30,11,40,047,33*79
$GPRMC,120351.00,A,5913.900,N,01046.200,E,0.0,0.0,110924,,,A*53
$GPGGA,120351.00,5913.900,N,01046.200,E,1,04,1.0,40.0,M,39.0,M,,*55
$GPGSV,1,1,04,01,40,037,34,03,40,111,32,08,40,296,30,11,40,047,33*79
$GPRMC,120352.00,A,5913.900,N,01046.200,E,0.0,0.0,110924,,,A*50
$GPGGA,120352.00,5913.900,N,01046.200,E,1,04,1.0,40.0,M,39.0,M,,*56
$GPGSV,1,1,04,01,40,037,34,03,40,111,32,08,40,296,30,11,40,047,33*79
$GPRMC,120353.00,A,5913.900,N,01046.200,E,0.0,0.0,110924,,,A*51
$GPGGA,120353.00,5913.900,N,01046.200,E,1,04,1.0,40.0,M,39.0,M,,*57
$GPGSV,1,1,04,01,40,037,34,03,40,111,32,08,40,296,30,11,40,047,33*79
$GPRMC,120354.00,A,5913.900,N,01046.200,E,0.0,0.0,110924,,,A*56
$GPGGA,120354.00,5913.900,N,01046.200,E,1,04,1.0,40.0,M,39.0,M,,*50
$GPGSV,1,1,04,01,40,037,34,03,40,111,32,08,40,296,30,11,40,047,33*79
$GPRMC,120355.00,A,5913.900,N,01046.200,E,0.0,0.0,110924,,,A*57
$GPGGA,120355.00,5913.900,N,01046.200,E,1,04,1.0,40.0,M,39.0,M,,*51
$GPGSV,1,1,04,01,40,037,34,03,40,111,32,08,40,296,30,11,40,047,33*79
$GPRMC,120356.00,A,5913.900,N,01046.200,E,0.0,0.0,110924,,,A*54
$GPGGA,120356.00,5913.900,N,01046.200,E,1,04,1.0,40.0,M,39.0,M,,*52
$GPGSV,1,1,04,01,40,037,34,03,40,111,32,08,40,296,30,11,40,047,33*79
$GPRMC,120357.00,A,5913.900,N,01046.200,E,0.0,0.0,110924,,,A*55
$GPGGA,120357.00,5913.900,N,01046.200,E,1,04,1.0,40.0,M,39.0,M,,*53
$GPGSV,1,1,04,01,40,037,34,03,40,111,32,08,40,296,30,11,40,047,33*79
$GPRMC,120358.00,A,5913.900,N,01046.200,E,0.0,0.0,110924,,,A*5A
$GPGGA,120358.00,5913.900,N,01046.200,E,1,04,1.0,40.0,M,39.0,M,,*5C
$GPGSV,1,1,04,01,40,037,34,03,40,111,32,08,40,296,30,11,40,047,33*79
$GPRMC,120359.00,A,5913.900,N,01046.200,E,0.0,0.0,110924,,,A*5B
$GPGGA,120359.00,5913.900,N,01046.200,E,1,04,1.0,40.0,M,39.0,M,,*5D
$GPGSV,1,1,04,01,40,037,34,03,40,111,32,08,40,296,30,11,40,047,33*79
$GPRMC,120400.00,A,5913.900,N,01046.200,E,0.0,0.0,110924,,,A*50
$GPGGA,120400.00,5913.900,N,01046.200,E,1,06,1.0,40.0,M,39.0,M,,*54
$GPGSV,2,1,06,01,40,037,46,03,40,111,44,08,40,296,42,11,40,047,45*78
$GPGSV,2,2,06,17,40,269,41,22,40,094,43*7B
$GPRMC,120401.00,A,5913.900,N,01046.200,E,0.0,0.0,110924,,,A*51
$GPGGA,120401.00,5913.900,N,01046.200,E,1,06,1.0,40.0,M,39.0,M,,*55
$GPGSV,2,1,06,01,40,037,46,03,40,111,44,08,40,296,42,11,40,047,45*78
$GPGSV,2,2,06,17,40,269,41,22,40,094,43*7B
$GPRMC,120402.00,A,5913.900,N,01046.200,E,0.0,0.0,110924,,,A*52
$GPGGA,120402.00,5913.900,N,01046.200,E,1,06,1.0,40.0,M,39.0,M,,*56
$GPGSV,2,1,06,01,40,037,46,03,40,111,44,08,40,296,42,11,40,047,45*78
$GPGSV,2,2,06,17,40,269,41,22,40,094,43*7B
$GPRMC,120403.00,A,5913.900,N,01046.200,E,0.0,0.0,110924,,,A*53
$GPGGA,120403.00,5913.900,N,01046.200,E,1,06,1.0,40.0,M,39.0,M,,*57
$GPGSV,2,1,06,01,40,037,46,03,40,111,44,08,40,296,42,11,40,047,45*78
$GPGSV,2,2,06,17,40,269,41,22,40,094,43*7B
$GPRMC,120404.00,A,5913.900,N,01046.200,E,0.0,0.0,110924,,,A*54
$GPGGA,120404.00,5913.900,N,01046.200,E,1,06,1.0,40.0,M,39.0,M,,*50
$GPGSV,2,1,06,01,40,037,46,03,40,111,44,08,40,296,42,11,40,047,45*78
$GPGSV,2,2,06,17,40,269,41,22,40,094,43*7B
$GPRMC,120405.00,A,5913.900,N,01046.200,E,0.0,0.0,110924,,,A*55
$GPGGA,120405.00,5913.900,N,01046.200,E,1,06,1.0,40.0,M,39.0,M,,*51
$GPGSV,2,1,06,01,40,037,46,03,40,111,44,08,40,296,42,11,40,047,45*78
$GPGSV,2,2,06,17,40,269,41,22,40,094,43*7B
$GPRMC,120406.00,A,5913.900,N,01046.200,E,0.0,0.0,110924,,,A*56
$GPGGA,120406.00,5913.900,N,01046.200,E,1,06,1.0,40.0,M,39.0,M,,*52
$GPGSV,2,1,06,01,40,037,46,03,40,111,44,08,40,296,42,11,40,047,45*78
$GPGSV,2,2,06,17,40,269,41,22,40,094,43*7B
$GPRMC,120407.00,A,5913.900,N,01046.200,E,0.0,0.0,110924,,,A*57
$GPGGA,120407.00,5913.900,N,01046.200,E,1,06,1.0,40.0,M,39.0,M,,*53
$GPGSV,2,1,06,01,40,037,46,03,40,111,44,08,40,296,42,11,40,047,45*78
$GPGSV,2,2,06,17,40,269,41,22,40,094,43*7B
$GPRMC,120408.00,A,5913.900,N,01046.200,E,0.0,0.0,110924,,,A*58
$GPGGA,120408.00,5913.900,N,01046.200,E,1,06,1.0,40.0,M,39.0,M,,*5C
$GPGSV,2,1,06,01,40,037,46,03,40,111,44,08,40,296,42,11,40,047,45*78
$GPGSV,2,2,06,17,40,269,41,22,40,094,43*7B
$GPRMC,120409.00,A,5913.900,N,01046.200,E,0.0,0.0,110924,,,A*59
$GPGGA,120409.00,5913.900,N,01046.200,E,1,06,1.0,40.0,M,39.0,M,,*5D
$GPGSV,2,1,06,01,40,037,46,03,40,111,44,08,40,296,42,11,40,047,45*78
$GPGSV,2,2,06,17,40,269,41,22,40,094,43*7B
$GPRMC,120410.00,A,5913.900,N,01046.200,E,0.0,0.0,110924,,,A*51
$GPGGA,120410.00,5913.900,N,01046.200,E,1,06,1.0,40.0,M,39.0,M,,*55
$GPGSV,2,1,06,01,40,037,46,03,40,111,44,08,40,296,42,11,40,047,45*78
$GPGSV,2,2,06,17,40,269,41,22,40,094,43*7B
$GPRMC,120411.00,A,5913.900,N,01046.200,E,0.0,0.0,110924,,,A*50
$GPGGA,120411.00,5913.900,N,01046.200,E,1,06,1.0,40.0,M,39.0,M,,*54
$GPGSV,2,1,06,01,40,037,46,03,40,111,44,08,40,296,42,11,40,047,45*78
$GPGSV,2,2,06,17,40,269,41,22,40,094,43*7B
$GPRMC,120412.00,A,5913.900,N,01046.200,E,0.0,0.0,110924,,,A*53
$GPGGA,120412.00,5913.900,N,01046.200,E,1,06,1.0,40.0,M,39.0,M,,*57
$GPGSV,2,1,06,01,40,037,46,03,40,111,44,08,40,296,42,11,40,047,45*78
$GPGSV,2,2,06,17,40,269,41,22,40,094,43*7B
$GPRMC,120413.00,A,5913.900,N,01046.200,E,0.0,0.0,110924,,,A*52
$GPGGA,120413.00,5913.900,N,01046.200,E,1,06,1.0,40.0,M,39.0,M,,*56
$GPGSV,2,1,06,01,40,037,46,03,40,111,44,08,40,296,42,11,40,047,45*78
$GPGSV,2,2,06,17,40,269,41,22,40,094,43*7B
$GPRMC,120414.00,A,5913.900,N,01046.200,E,0.0,0.0,110924,,,A*55
$GPGGA,120414.00,5913.900,N,01046.200,E,1,06,1.0,40.0,M,39.0,M,,*51
$GPGSV,2,1,06,01,40,037,46,03,40,111,44,08,40,296,42,11,40,047,45*78
$GPGSV,2,2,06,17,40,269,41,22,40,094,43*7B
$GPRMC,120415.00,A,5913.900,N,01046.200,E,0.0,0.0,110924,,,A*54
$GPGGA,120415.00,5913.900,N,01046.200,E,1,06,1.0,40.0,M,39.0,M,,*50
$GPGSV,2,1,06,01,40,037,46,03,40,111,44,08,40,296,42,11,40,047,45*78
$GPGSV,2,2,06,17,40,269,41,22,40,094,43*7B
$GPRMC,120416.00,A,5913.900,N,01046.200,E,0.0,0.0,110924,,,A*57
$GPGGA,120416.00,5913.900,N,01046.200,E,1,06,1.0,40.0,M,39.0,M,,*53
$GPGSV,2,1,06,01,40,037,46,03,40,111,44,08,40,296,42,11,40,047,45*78
$GPGSV,2,2,06,17,40,269,41,22,40,094,43*7B
$GPRMC,120417.00,A,5913.900,N,01046.200,E,0.0,0.0,110924,,,A*56
$GPGGA,120417.00,5913.900,N,01046.200,E,1,06,1.0,40.0,M,39.0,M,,*52
$GPGSV,2,1,06,01,40,037,46,03,40,111,44,08,40,296,42,11,40,047,45*78
$GPGSV,2,2,06,17,40,269,41,22,40,094,43*7B
$GPRMC,120418.00,A,5913.900,N,01046.200,E,0.0,0.0,110924,,,A*59
$GPGGA,120418.00,5913.900,N,01046.200,E,1,06,1.0,40.0,M,39.0,M,,*5D
$GPGSV,2,1,06,01,40,037,46,03,40,111,44,08,40,296,42,11,40,047,45*78
$GPGSV,2,2,06,17,40,269,41,22,40,094,43*7B
$GPRMC,120419.00,A,5913.900,N,01046.200,E,0.0,0.0,110924,,,A*58
$GPGGA,120419.00,5913.900,N,01046.200,E,1,06,1.0,40.0,M,39.0,M,,*5C
$GPGSV,2,1,06,01,40,037,46,03,40,111,44,08,40,296,42,11,40,047,45*78
$GPGSV,2,2,06,17,40,269,41,22,40,094,43*7B
$GPRMC,120420.00,A,5913.900,N,01046.200,E,0.0,0.0,110924,,,A*52
$GPGGA,120420.00,5913.900,N,01046.200,E,1,06,1.0,40.0,M,39.0,M,,*56
$GPGSV,2,1,06,01,40,037,46,03,40,111,44,08,40,296,42,11,40,047,45*78
$GPGSV,2,2,06,17,40,269,41,22,40,094,43*7B
$GPRMC,120421.00,A,5913.900,N,01046.200,E,0.0,0.0,110924,,,A*53
$GPGGA,120421.00,5913.900,N,01046.200,E,1,06,1.0,40.0,M,39.0,M,,*57
$GPGSV,2,1,06,01,40,037,46,03,40,111,44,08,40,296,42,11,40,047,45*78
$GPGSV,2,2,06,17,40,269,41,22,40,094,43*7B
$GPRMC,120422.00,A,5913.900,N,01046.200,E,0.0,0.0,110924,,,A*50
$GPGGA,120422.00,5913.900,N,01046.200,E,1,06,1.0,40.0,M,39.0,M,,*54
$GPGSV,2,1,06,01,40,037,46,03,40,111,44,08,40,296,42,11,40,047,45*78
$GPGSV,2,2,06,17,40,269,41,22,40,094,43*7B
$GPRMC,120423.00,A,5913.900,N,01046.200,E,0.0,0.0,110924,,,A*51
$GPGGA,120423.00,5913.900,N,01046.200,E,1,06,1.0,40.0,M,39.0,M,,*55
$GPGSV,2,1,06,01,40,037,46,03,40,111,44,08,40,296,42,11,40,047,45*78
$GPGSV,2,2,06,17,40,269,41,22,40,094,43*7B
$GPRMC,120424.00,A,5913.900,N,01046.200,E,0.0,0.0,110924,,,A*56
$GPGGA,120424.00,5913.900,N,01046.200,E,1,06,1.0,40.0,M,39.0,M,,*52
$GPGSV,2,1,06,01,40,037,46,03,40,111,44,08,40,296,42,11,40,047,45*78
$GPGSV,2,2,06,17,40,269,41,22,40,094,43*7B
$GPRMC,120425.00,A,5913.900,N,01046.200,E,0.0,0.0,110924,,,A*57
$GPGGA,120425.00,5913.900,N,01046.200,E,1,06,1.0,40.0,M,39.0,M,,*53
$GPGSV,2,1,06,01,40,037,46,03,40,111,44,08,40,296,42,11,40,047,45*78
$GPGSV,2,2,06,17,40,269,41,22,40,094,43*7B
$GPRMC,120426.00,A,5913.900,N,01046.200,E,0.0,0.0,110924,,,A*54
$GPGGA,120426.00,5913.900,N,01046.200,E,1,06,1.0,40.0,M,39.0,M,,*50
$GPGSV,2,1,06,01,40,037,46,03,40,111,44,08,40,296,42,11,40,047,45*78
$GPGSV,2,2,06,17,40,269,41,22,40,094,43*7B
$GPRMC,120427.00,A,5913.900,N,01046.200,E,0.0,0.0,110924,,,A*55
$GPGGA,120427.00,5913.900,N,01046.200,E,1,06,1.0,40.0,M,39.0,M,,*51
$GPGSV,2,1,06,01,40,037,46,03,40,111,44,08,40,296,42,11,40,047,45*78
$GPGSV,2,2,06,17,40,269,41,22,40,094,43*7B
$GPRMC,120428.00,A,5913.900,N,01046.200,E,0.0,0.0,110924,,,A*5A
$GPGGA,120428.00,5913.900,N,01046.200,E,1,06,1.0,40.0,M,39.0,M,,*5E
$GPGSV,2,1,06,01,40,037,46,03,40,111,44,08,40,296,42,11,40,047,45*78
$GPGSV,2,2,06,17,40,269,41,22,40,094,43*7B
$GPRMC,120429.00,A,5913.900,N,01046.200,E,0.0,0.0,110924,,,A*5B
$GPGGA,120429.00,5913.900,N,01046.200,E,1,06,1.0,40.0,M,39.0,M,,*5F
$GPGSV,2,1,06,01,40,037,46,03,40,111,44,08,40,296,42,11,40,047,45*78
$GPGSV,2,2,06,17,40,269,41,22,40,094,43*7B
$GPRMC,120430.00,A,5913.900,N,01046.200,E,0.0,0.0,110924,,,A*53
$GPGGA,120430.00,5913.900,N,01046.200,E,1,06,1.0,40.0,M,39.0,M,,*57
$GPGSV,2,1,06,01,40,037,46,03,40,111,44,08,40,296,42,11,40,047,45*78
$GPGSV,2,2,06,17,40,269,41,22,40,094,43*7B
$GPRMC,120431.00,A,5913.900,N,01046.200,E,0.0,0.0,110924,,,A*52
$GPGGA,120431.00,5913.900,N,01046.200,E,1,06,1.0,40.0,M,39.0,M,,*56
$GPGSV,2,1,06,01,40,037,46,03,40,111,44,08,40,296,42,11,40,047,45*78
$GPGSV,2,2,06,17,40,269,41,22,40,094,43*7B
$GPRMC,120432.00,A,5913.900,N,01046.200,E,0.0,0.0,110924,,,A*51
$GPGGA,120432.00,5913.900,N,01046.200,E,1,06,1.0,40.0,M,39.0,M,,*55
$GPGSV,2,1,06,01,40,037,46,03,40,111,44,08,40,296,42,11,40,047,45*78
$GPGSV,2,2,06,17,40,269,41,22,40,094,43*7B
$GPRMC,120433.00,A,5913.900,N,01046.200,E,0.0,0.0,110924,,,A*50
$GPGGA,120433.00,5913.900,N,01046.200,E,1,06,1.0,40.0,M,39.0,M,,*54
$GPGSV,2,1,06,01,40,037,46,03,40,111,44,08,40,296,42,11,40,047,45*78
$GPGSV,2,2,06,17,40,269,41,22,40,094,43*7B
$GPRMC,120434.00,A,5913.900,N,01046.200,E,0.0,0.0,110924,,,A*57
$GPGGA,120434.00,5913.900,N,01046.200,E,1,06,1.0,40.0,M,39.0,M,,*53
$GPGSV,2,1,06,01,40,037,46,03,40,111,44,08,40,296,42,11,40,047,45*78
$GPGSV,2,2,06,17,40,269,41,22,40,094,43*7B
$GPRMC,120435.00,A,5913.900,N,01046.200,E,0.0,0.0,110924,,,A*56
$GPGGA,120435.00,5913.900,N,01046.200,E,1,06,1.0,40.0,M,39.0,M,,*52
$GPGSV,2,1,06,01,40,037,46,03,40,111,44,08,40,296,42,11,40,047,45*78
$GPGSV,2,2,06,17,40,269,41,22,40,094,43*7B
$GPRMC,120436.00,A,5913.900,N,01046.200,E,0.0,0.0,110924,,,A*55
$GPGGA,120436.00,5913.900,N,01046.200,E,1,06,1.0,40.0,M,39.0,M,,*51
$GPGSV,2,1,06,01,40,037,46,03,40,111,44,08,40,296,42,11,40,047,45*78
$GPGSV,2,2,06,17,40,269,41,22,40,094,43*7B
$GPRMC,120437.00,A,5913.900,N,01046.200,E,0.0,0.0,110924,,,A*54
$GPGGA,120437.00,5913.900,N,01046.200,E,1,06,1.0,40.0,M,39.0,M,,*50
$GPGSV,2,1,06,01,40,037,46,03,40,111,44,08,40,296,42,11,40,047,45*78
$GPGSV,2,2,06,17,40,269,41,22,40,094,43*7B
$GPRMC,120438.00,A,5913.900,N,01046.200,E,0.0,0.0,110924,,,A*5B
$GPGGA,120438.00,5913.900,N,01046.200,E,1,06,1.0,40.0,M,39.0,M,,*5F
$GPGSV,2,1,06,01,40,037,46,03,40,111,44,08,40,296,42,11,40,047,45*78
$GPGSV,2,2,06,17,40,269,41,22,40,094,43*7B
$GPRMC,120439.00,A,5913.900,N,01046.200,E,0.0,0.0,110924,,,A*5A
$GPGGA,120439.00,5913.900,N,01046.200,E,1,06,1.0,40.0,M,39.0,M,,*5E
$GPGSV,2,1,06,01,40,037,46,03,40,111,44,08,40,296,42,11,40,047,45*78
$GPGSV,2,2,06,17,40,269,41,22,40,094,43*7B
$GPRMC,120440.00,A,5913.900,N,01046.200,E,0.0,0.0,110924,,,A*54
$GPGGA,120440.00,5913.900,N,01046.200,E,1,06,1.0,40.0,M,39.0,M,,*50
$GPGSV,2,1,06,01,40,037,46,03,40,111,44,08,40,296,42,11,40,047,45*78
$GPGSV,2,2,06,17,40,269,41,22,40,094,43*7B
$GPRMC,120441.00,A,5913.900,N,01046.200,E,0.0,0.0,110924,,,A*55
$GPGGA,120441.00,5913.900,N,01046.200,E,1,06,1.0,40.0,M,39.0,M,,*51
$GPGSV,2,1,06,01,40,037,46,03,40,111,44,08,40,296,42,11,40,047,45*78
$GPGSV,2,2,06,17,40,269,41,22,40,094,43*7B
$GPRMC,120442.00,A,5913.900,N,01046.200,E,0.0,0.0,110924,,,A*56
$GPGGA,120442.00,5913.900,N,01046.200,E,1,06,1.0,40.0,M,39.0,M,,*52
$GPGSV,2,1,06,01,40,037,46,03,40,111,44,08,40,296,42,11,40,047,45*78
$GPGSV,2,2,06,17,40,269,41,22,40,094,43*7B
$GPRMC,120443.00,A,5913.900,N,01046.200,E,0.0,0.0,110924,,,A*57
$GPGGA,120443.00,5913.900,N,01046.200,E,1,06,1.0,40.0,M,39.0,M,,*53
$GPGSV,2,1,06,01,40,037,46,03,40,111,44,08,40,296,42,11,40,047,45*78
$GPGSV,2,2,06,17,40,269,41,22,40,094,43*7B
$GPRMC,120444.00,A,5913.900,N,01046.200,E,0.0,0.0,110924,,,A*50
$GPGGA,120444.00,5913.900,N,01046.200,E,1,06,1.0,40.0,M,39.0,M,,*54
$GPGSV,2,1,06,01,40,037,46,03,40,111,44,08,40,296,42,11,40,047,45*78
$GPGSV,2,2,06,17,40,269,41,22,40,094,43*7B
$GPRMC,120445.00,A,5913.900,N,01046.200,E,0.0,0.0,110924,,,A*51
$GPGGA,120445.00,5913.900,N,01046.200,E,1,06,1.0,40.0,M,39.0,M,,*55
$GPGSV,2,1,06,01,40,037,46,03,40,111,44,08,40,296,42,11,40,047,45*78
$GPGSV,2,2,06,17,40,269,41,22,40,094,43*7B
$GPRMC,120446.00,A,5913.900,N,01046.200,E,0.0,0.0,110924,,,A*52
$GPGGA,120446.00,5913.900,N,01046.200,E,1,06,1.0,40.0,M,39.0,M,,*56
$GPGSV,2,1,06,01,40,037,46,03,40,111,44,08,40,296,42,11,40,047,45*78
$GPGSV,2,2,06,17,40,269,41,22,40,094,43*7B
$GPRMC,120447.00,A,5913.900,N,01046.200,E,0.0,0.0,110924,,,A*53
$GPGGA,120447.00,5913.900,N,01046.200,E,1,06,1.0,40.0,M,39.0,M,,*57
$GPGSV,2,1,06,01,40,037,46,03,40,111,44,08,40,296,42,11,40,047,45*78
$GPGSV,2,2,06,17,40,269,41,22,40,094,43*7B
$GPRMC,120448.00,A,5913.900,N,01046.200,E,0.0,0.0,110924,,,A*5C
$GPGGA,120448.00,5913.900,N,01046.200,E,1,06,1.0,40.0,M,39.0,M,,*58
$GPGSV,2,1,06,01,40,037,46,03,40,111,44,08,40,296,42,11,40,047,45*78
$GPGSV,2,2,06,17,40,269,41,22,40,094,43*7B
$GPRMC,120449.00,A,5913.900,N,01046.200,E,0.0,0.0,110924,,,A*5D
$GPGGA,120449.00,5913.900,N,01046.200,E,1,06,1.0,40.0,M,39.0,M,,*59
$GPGSV,2,1,06,01,40,037,46,03,40,111,44,08,40,296,42,11,40,047,45*78
$GPGSV,2,2,06,17,40,269,41,22,40,094,43*7B
$GPRMC,120450.00,A,5913.900,N,01046.200,E,0.0,0.0,110924,,,A*55
$GPGGA,120450.00,5913.900,N,01046.200,E,1,06,1.0,40.0,M,39.0,M,,*51
$GPGSV,2,1,06,01,40,037,46,03,40,111,44,08,40,296,42,11,40,047,45*78
$GPGSV,2,2,06,17,40,269,41,22,40,094,43*7B
$GPRMC,120451.00,A,5913.900,N,01046.200,E,0.0,0.0,110924,,,A*54
$GPGGA,120451.00,5913.900,N,01046.200,E,1,06,1.0,40.0,M,39.0,M,,*50
$GPGSV,2,1,06,01,40,037,46,03,40,111,44,08,40,296,42,11,40,047,45*78
$GPGSV,2,2,06,17,40,269,41,22,40,094,43*7B
$GPRMC,120452.00,A,5913.900,N,01046.200,E,0.0,0.0,110924,,,A*57
$GPGGA,120452.00,5913.900,N,01046.200,E,1,06,1.0,40.0,M,39.0,M,,*53
$GPGSV,2,1,06,01,40,037,46,03,40,111,44,08,40,296,42,11,40,047,45*78
$GPGSV,2,2,06,17,40,269,41,22,40,094,43*7B
$GPRMC,120453.00,A,5913.900,N,01046.200,E,0.0,0.0,110924,,,A*56
$GPGGA,120453.00,5913.900,N,01046.200,E,1,06,1.0,40.0,M,39.0,M,,*52
$GPGSV,2,1,06,01,40,037,46,03,40,111,44,08,40,296,42,11,40,047,45*78
$GPGSV,2,2,06,17,40,269,41,22,40,094,43*7B
$GPRMC,120454.00,A,5913.900,N,01046.200,E,0.0,0.0,110924,,,A*51
$GPGGA,120454.00,5913.900,N,01046.200,E,1,06,1.0,40.0,M,39.0,M,,*55
$GPGSV,2,1,06,01,40,037,46,03,40,111,44,08,40,296,42,11,40,047,45*78
$GPGSV,2,2,06,17,40,269,41,22,40,094,43*7B
$GPRMC,120455.00,A,5913.900,N,01046.200,E,0.0,0.0,110924,,,A*50
$GPGGA,120455.00,5913.900,N,01046.200,E,1,06,1.0,40.0,M,39.0,M,,*54
$GPGSV,2,1,06,01,40,037,46,03,40,111,44,08,40,296,42,11,40,047,45*78
$GPGSV,2,2,06,17,40,269,41,22,40,094,43*7B
$GPRMC,120456.00,A,5913.900,N,01046.200,E,0.0,0.0,110924,,,A*53
$GPGGA,120456.00,5913.900,N,01046.200,E,1,06,1.0,40.0,M,39.0,M,,*57
$GPGSV,2,1,06,01,40,037,46,03,40,111,44,08,40,296,42,11,40,047,45*78
$GPGSV,2,2,06,17,40,269,41,22,40,094,43*7B
$GPRMC,120457.00,A,5913.900,N,01046.200,E,0.0,0.0,110924,,,A*52
$GPGGA,120457.00,5913.900,N,01046.200,E,1,06,1.0,40.0,M,39.0,M,,*56
$GPGSV,2,1,06,01,40,037,46,03,40,111,44,08,40,296,42,11,40,047,45*78
$GPGSV,2,2,06,17,40,269,41,22,40,094,43*7B
$GPRMC,120458.00,A,5913.900,N,01046.200,E,0.0,0.0,110924,,,A*5D
$GPGGA,120458.00,5913.900,N,01046.200,E,1,06,1.0,40.0,M,39.0,M,,*59
$GPGSV,2,1,06,01,40,037,46,03,40,111,44,08,40,296,42,11,40,047,45*78
$GPGSV,2,2,06,17,40,269,41,22,40,094,43*7B
$GPRMC,120459.00,A,5913.900,N,01046.200,E,0.0,0.0,110924,,,A*5C
$GPGGA,120459.00,5913.900,N,01046.200,E,1,06,1.0,40.0,M,39.0,M,,*58
$GPGSV,2,1,06,01,40,037,46,03,40,111,44,08,40,296,42,11,40,047,45*78
$GPGSV,2,2,06,17,40,269,41,22,40,094,43*7B
