{"type":"FeatureCollection","kshana_interference_map":{"schema":"kshana-interference-map/v1","format_version":1,"source_kind":"adsb","date":"2026-03-02","grid":{"cell_deg":0.5,"is_preregistered":true,"preregistered_cell_deg":0.5,"type":"fixed_lat_lon"},"method":{"caveats":["SYNTHETIC FIXTURE: every number in this file is made up for the Studio demonstration.","A degraded cell means a high share of aircraft reported low navigation accuracy there that day. It does not identify interference as the cause.","Other causes include satellite constellation or augmentation outages, space-weather effects, and receiver or transponder faults.","Conservative by construction: aircraft that fly only inside an affected region all day have no baseline and are not counted.","Cells with no published entry were not observed by enough aircraft, which is not the same as clear."],"guards":["airborne reports above the altitude floor only","distinct aircraft are counted, not reports, so one aircraft cannot dominate a cell","an aircraft counts only if it sent good-accuracy reports elsewhere the same day (excludes equipment that never reports accuracy)","the cell share must exceed the day's median cell share by a margin","a day whose median cell share is itself high is marked confounded and no cell is declared degraded","a cell is declared degraded only if at least the publication minimum of aircraft are affected","when too few cells are fully sampled to estimate the day's background, no cell is declared degraded","every per-cell count below the publication minimum is withheld, zero included","cells with fewer than the minimum distinct aircraft are not published"],"id":"kshana-interference-map/adsb/v2","input_stats":{"excluded_ground_or_below_altitude_floor":0,"excluded_no_accuracy_field":0,"excluded_non_adsb_source":0,"rejected_malformed":0,"rows":880,"trace_files":0,"trace_files_unreadable":0,"used":880,"note":"synthetic fixture built from the sample file's method block; no input rows"},"parameters":{"affected_report_share":0.5,"background_margin":0.15,"day_confound_background":0.15,"degraded_share":0.3,"good_nacp_min":8,"good_nic_min":7,"low_nacp_max":6,"low_nic_max":5,"min_affected_aircraft":5,"min_aircraft_sampled":10,"min_alt_ft":5000,"min_baseline_good_reports":5,"min_cells_for_background":5,"min_reports_per_aircraft_in_cell":3,"publication_min_distinct":5},"summary":"Share of distinct aircraft whose NIC/NACp reports are low-accuracy within a fixed grid cell, per UTC day."},"day":{"background_evaluated":true,"background_share":0.2,"day_confounded":true,"cells_published":38,"cells_suppressed_below_min_distinct":0},"data":{"attribution":"Synthetic data generated for Kshana documentation. Not real observations.","coverage_notes":["Coverage of a user-supplied dataset is not described by Kshana."],"dataset":"custom","licence":"CC0-1.0","licence_url":"https://creativecommons.org/publicdomain/zero/1.0/","name":"user-supplied dataset"},"kshana_version":"0.34.0","notice":"Aggregate only: no aircraft or vessel identifiers appear in this file. Cells with fewer than the minimum number of distinct aircraft or vessels are omitted. A missing cell was not observed and is not evidence of a clear cell."},"features":[{"type":"Feature","properties":{"aircraft_observed":32,"aircraft_sampled":18,"aircraft_affected":3,"affected_share":0.1667,"status":"not_degraded","degraded":false,"cell_i":238,"cell_j":258},"geometry":{"type":"Polygon","coordinates":[[[-51,29],[-50.5,29],[-50.5,29.5],[-51,29.5],[-51,29]]]}},{"type":"Feature","properties":{"aircraft_observed":23,"aircraft_sampled":15,"aircraft_affected":3,"affected_share":0.2,"status":"not_degraded","degraded":false,"cell_i":238,"cell_j":259},"geometry":{"type":"Polygon","coordinates":[[[-50.5,29],[-50,29],[-50,29.5],[-50.5,29.5],[-50.5,29]]]}},{"type":"Feature","properties":{"aircraft_observed":21,"aircraft_sampled":15,"aircraft_affected":3,"affected_share":0.2,"status":"not_degraded","degraded":false,"cell_i":238,"cell_j":262},"geometry":{"type":"Polygon","coordinates":[[[-49,29],[-48.5,29],[-48.5,29.5],[-49,29.5],[-49,29]]]}},{"type":"Feature","properties":{"aircraft_observed":13,"aircraft_sampled":null,"aircraft_affected":null,"affected_share":null,"status":"insufficient_sample","degraded":false,"cell_i":239,"cell_j":257},"geometry":{"type":"Polygon","coordinates":[[[-51.5,29.5],[-51,29.5],[-51,30],[-51.5,30],[-51.5,29.5]]]}},{"type":"Feature","properties":{"aircraft_observed":20,"aircraft_sampled":16,"aircraft_affected":11,"affected_share":0.6875,"status":"withheld_day_confounded","degraded":false,"cell_i":239,"cell_j":259},"geometry":{"type":"Polygon","coordinates":[[[-50.5,29.5],[-50,29.5],[-50,30],[-50.5,30],[-50.5,29.5]]]}},{"type":"Feature","properties":{"aircraft_observed":44,"aircraft_sampled":43,"aircraft_affected":32,"affected_share":0.7442,"status":"withheld_day_confounded","degraded":false,"cell_i":239,"cell_j":261},"geometry":{"type":"Polygon","coordinates":[[[-49.5,29.5],[-49,29.5],[-49,30],[-49.5,30],[-49.5,29.5]]]}},{"type":"Feature","properties":{"aircraft_observed":5,"aircraft_sampled":null,"aircraft_affected":null,"affected_share":null,"status":"insufficient_sample","degraded":false,"cell_i":239,"cell_j":262},"geometry":{"type":"Polygon","coordinates":[[[-49,29.5],[-48.5,29.5],[-48.5,30],[-49,30],[-49,29.5]]]}},{"type":"Feature","properties":{"aircraft_observed":28,"aircraft_sampled":10,"aircraft_affected":7,"affected_share":0.7,"status":"withheld_day_confounded","degraded":false,"cell_i":239,"cell_j":263},"geometry":{"type":"Polygon","coordinates":[[[-48.5,29.5],[-48,29.5],[-48,30],[-48.5,30],[-48.5,29.5]]]}},{"type":"Feature","properties":{"aircraft_observed":16,"aircraft_sampled":10,"aircraft_affected":2,"affected_share":0.2,"status":"not_degraded","degraded":false,"cell_i":239,"cell_j":265},"geometry":{"type":"Polygon","coordinates":[[[-47.5,29.5],[-47,29.5],[-47,30],[-47.5,30],[-47.5,29.5]]]}},{"type":"Feature","properties":{"aircraft_observed":42,"aircraft_sampled":15,"aircraft_affected":3,"affected_share":0.2,"status":"not_degraded","degraded":false,"cell_i":239,"cell_j":266},"geometry":{"type":"Polygon","coordinates":[[[-47,29.5],[-46.5,29.5],[-46.5,30],[-47,30],[-47,29.5]]]}},{"type":"Feature","properties":{"aircraft_observed":8,"aircraft_sampled":8,"aircraft_affected":5,"affected_share":0.625,"status":"insufficient_sample","degraded":false,"cell_i":240,"cell_j":259},"geometry":{"type":"Polygon","coordinates":[[[-50.5,30],[-50,30],[-50,30.5],[-50.5,30.5],[-50.5,30]]]}},{"type":"Feature","properties":{"aircraft_observed":52,"aircraft_sampled":43,"aircraft_affected":28,"affected_share":0.6512,"status":"withheld_day_confounded","degraded":false,"cell_i":240,"cell_j":261},"geometry":{"type":"Polygon","coordinates":[[[-49.5,30],[-49,30],[-49,30.5],[-49.5,30.5],[-49.5,30]]]}},{"type":"Feature","properties":{"aircraft_observed":41,"aircraft_sampled":12,"aircraft_affected":9,"affected_share":0.75,"status":"withheld_day_confounded","degraded":false,"cell_i":240,"cell_j":262},"geometry":{"type":"Polygon","coordinates":[[[-49,30],[-48.5,30],[-48.5,30.5],[-49,30.5],[-49,30]]]}},{"type":"Feature","properties":{"aircraft_observed":7,"aircraft_sampled":7,"aircraft_affected":5,"affected_share":0.7143,"status":"insufficient_sample","degraded":false,"cell_i":240,"cell_j":263},"geometry":{"type":"Polygon","coordinates":[[[-48.5,30],[-48,30],[-48,30.5],[-48.5,30.5],[-48.5,30]]]}},{"type":"Feature","properties":{"aircraft_observed":48,"aircraft_sampled":32,"aircraft_affected":22,"affected_share":0.6875,"status":"withheld_day_confounded","degraded":false,"cell_i":240,"cell_j":264},"geometry":{"type":"Polygon","coordinates":[[[-48,30],[-47.5,30],[-47.5,30.5],[-48,30.5],[-48,30]]]}},{"type":"Feature","properties":{"aircraft_observed":35,"aircraft_sampled":19,"aircraft_affected":3,"affected_share":0.1579,"status":"not_degraded","degraded":false,"cell_i":240,"cell_j":265},"geometry":{"type":"Polygon","coordinates":[[[-47.5,30],[-47,30],[-47,30.5],[-47.5,30.5],[-47.5,30]]]}},{"type":"Feature","properties":{"aircraft_observed":40,"aircraft_sampled":26,"aircraft_affected":5,"affected_share":0.1923,"status":"not_degraded","degraded":false,"cell_i":240,"cell_j":266},"geometry":{"type":"Polygon","coordinates":[[[-47,30],[-46.5,30],[-46.5,30.5],[-47,30.5],[-47,30]]]}},{"type":"Feature","properties":{"aircraft_observed":11,"aircraft_sampled":7,"aircraft_affected":1,"affected_share":0.1429,"status":"insufficient_sample","degraded":false,"cell_i":240,"cell_j":267},"geometry":{"type":"Polygon","coordinates":[[[-46.5,30],[-46,30],[-46,30.5],[-46.5,30.5],[-46.5,30]]]}},{"type":"Feature","properties":{"aircraft_observed":27,"aircraft_sampled":14,"aircraft_affected":2,"affected_share":0.1429,"status":"not_degraded","degraded":false,"cell_i":241,"cell_j":257},"geometry":{"type":"Polygon","coordinates":[[[-51.5,30.5],[-51,30.5],[-51,31],[-51.5,31],[-51.5,30.5]]]}},{"type":"Feature","properties":{"aircraft_observed":24,"aircraft_sampled":14,"aircraft_affected":3,"affected_share":0.2143,"status":"not_degraded","degraded":false,"cell_i":241,"cell_j":258},"geometry":{"type":"Polygon","coordinates":[[[-51,30.5],[-50.5,30.5],[-50.5,31],[-51,31],[-51,30.5]]]}},{"type":"Feature","properties":{"aircraft_observed":28,"aircraft_sampled":15,"aircraft_affected":11,"affected_share":0.7333,"status":"withheld_day_confounded","degraded":false,"cell_i":241,"cell_j":259},"geometry":{"type":"Polygon","coordinates":[[[-50.5,30.5],[-50,30.5],[-50,31],[-50.5,31],[-50.5,30.5]]]}},{"type":"Feature","properties":{"aircraft_observed":15,"aircraft_sampled":13,"aircraft_affected":9,"affected_share":0.6923,"status":"withheld_day_confounded","degraded":false,"cell_i":241,"cell_j":260},"geometry":{"type":"Polygon","coordinates":[[[-50,30.5],[-49.5,30.5],[-49.5,31],[-50,31],[-50,30.5]]]}},{"type":"Feature","properties":{"aircraft_observed":46,"aircraft_sampled":31,"aircraft_affected":22,"affected_share":0.7097,"status":"withheld_day_confounded","degraded":false,"cell_i":241,"cell_j":261},"geometry":{"type":"Polygon","coordinates":[[[-49.5,30.5],[-49,30.5],[-49,31],[-49.5,31],[-49.5,30.5]]]}},{"type":"Feature","properties":{"aircraft_observed":10,"aircraft_sampled":null,"aircraft_affected":null,"affected_share":null,"status":"insufficient_sample","degraded":false,"cell_i":241,"cell_j":263},"geometry":{"type":"Polygon","coordinates":[[[-48.5,30.5],[-48,30.5],[-48,31],[-48.5,31],[-48.5,30.5]]]}},{"type":"Feature","properties":{"aircraft_observed":58,"aircraft_sampled":48,"aircraft_affected":10,"affected_share":0.2083,"status":"not_degraded","degraded":false,"cell_i":241,"cell_j":265},"geometry":{"type":"Polygon","coordinates":[[[-47.5,30.5],[-47,30.5],[-47,31],[-47.5,31],[-47.5,30.5]]]}},{"type":"Feature","properties":{"aircraft_observed":10,"aircraft_sampled":null,"aircraft_affected":null,"affected_share":null,"status":"insufficient_sample","degraded":false,"cell_i":241,"cell_j":266},"geometry":{"type":"Polygon","coordinates":[[[-47,30.5],[-46.5,30.5],[-46.5,31],[-47,31],[-47,30.5]]]}},{"type":"Feature","properties":{"aircraft_observed":8,"aircraft_sampled":null,"aircraft_affected":null,"affected_share":null,"status":"insufficient_sample","degraded":false,"cell_i":241,"cell_j":267},"geometry":{"type":"Polygon","coordinates":[[[-46.5,30.5],[-46,30.5],[-46,31],[-46.5,31],[-46.5,30.5]]]}},{"type":"Feature","properties":{"aircraft_observed":36,"aircraft_sampled":15,"aircraft_affected":3,"affected_share":0.2,"status":"not_degraded","degraded":false,"cell_i":242,"cell_j":257},"geometry":{"type":"Polygon","coordinates":[[[-51.5,31],[-51,31],[-51,31.5],[-51.5,31.5],[-51.5,31]]]}},{"type":"Feature","properties":{"aircraft_observed":40,"aircraft_sampled":32,"aircraft_affected":6,"affected_share":0.1875,"status":"not_degraded","degraded":false,"cell_i":242,"cell_j":258},"geometry":{"type":"Polygon","coordinates":[[[-51,31],[-50.5,31],[-50.5,31.5],[-51,31.5],[-51,31]]]}},{"type":"Feature","properties":{"aircraft_observed":18,"aircraft_sampled":18,"aircraft_affected":4,"affected_share":0.2222,"status":"not_degraded","degraded":false,"cell_i":242,"cell_j":260},"geometry":{"type":"Polygon","coordinates":[[[-50,31],[-49.5,31],[-49.5,31.5],[-50,31.5],[-50,31]]]}},{"type":"Feature","properties":{"aircraft_observed":54,"aircraft_sampled":45,"aircraft_affected":7,"affected_share":0.1556,"status":"not_degraded","degraded":false,"cell_i":242,"cell_j":261},"geometry":{"type":"Polygon","coordinates":[[[-49.5,31],[-49,31],[-49,31.5],[-49.5,31.5],[-49.5,31]]]}},{"type":"Feature","properties":{"aircraft_observed":26,"aircraft_sampled":24,"aircraft_affected":4,"affected_share":0.1667,"status":"not_degraded","degraded":false,"cell_i":242,"cell_j":262},"geometry":{"type":"Polygon","coordinates":[[[-49,31],[-48.5,31],[-48.5,31.5],[-49,31.5],[-49,31]]]}},{"type":"Feature","properties":{"aircraft_observed":34,"aircraft_sampled":10,"aircraft_affected":2,"affected_share":0.2,"status":"not_degraded","degraded":false,"cell_i":242,"cell_j":263},"geometry":{"type":"Polygon","coordinates":[[[-48.5,31],[-48,31],[-48,31.5],[-48.5,31.5],[-48.5,31]]]}},{"type":"Feature","properties":{"aircraft_observed":42,"aircraft_sampled":11,"aircraft_affected":2,"affected_share":0.1818,"status":"not_degraded","degraded":false,"cell_i":242,"cell_j":265},"geometry":{"type":"Polygon","coordinates":[[[-47.5,31],[-47,31],[-47,31.5],[-47.5,31.5],[-47.5,31]]]}},{"type":"Feature","properties":{"aircraft_observed":17,"aircraft_sampled":10,"aircraft_affected":2,"affected_share":0.2,"status":"not_degraded","degraded":false,"cell_i":242,"cell_j":267},"geometry":{"type":"Polygon","coordinates":[[[-46.5,31],[-46,31],[-46,31.5],[-46.5,31.5],[-46.5,31]]]}},{"type":"Feature","properties":{"aircraft_observed":18,"aircraft_sampled":16,"aircraft_affected":3,"affected_share":0.1875,"status":"not_degraded","degraded":false,"cell_i":243,"cell_j":257},"geometry":{"type":"Polygon","coordinates":[[[-51.5,31.5],[-51,31.5],[-51,32],[-51.5,32],[-51.5,31.5]]]}},{"type":"Feature","properties":{"aircraft_observed":57,"aircraft_sampled":25,"aircraft_affected":5,"affected_share":0.2,"status":"not_degraded","degraded":false,"cell_i":243,"cell_j":263},"geometry":{"type":"Polygon","coordinates":[[[-48.5,31.5],[-48,31.5],[-48,32],[-48.5,32],[-48.5,31.5]]]}},{"type":"Feature","properties":{"aircraft_observed":12,"aircraft_sampled":null,"aircraft_affected":null,"affected_share":null,"status":"insufficient_sample","degraded":false,"cell_i":243,"cell_j":267},"geometry":{"type":"Polygon","coordinates":[[[-46.5,31.5],[-46,31.5],[-46,32],[-46.5,32],[-46.5,31.5]]]}}]}